url,title,address,descripction,tel,gmap,img,lat,lon
https://meqqe.jp/spots/10356959,AED @清水公民館 １階フロアー,愛媛県今治市四村93-2,,,"https://local.google.co.jp/maps?q=34.0336400,132.9864400",https://images.meqqe.jp/post_images/9L6vo9UXxSjPKT8SmN3uXJBVFTBaZZXFYADpImBJ.jpg,34.0336400,132.9864400
https://meqqe.jp/spots/10356958,AED @富田公民館 １階事務所受付カウンター横,愛媛県今治市上徳甲393-3,,,"https://local.google.co.jp/maps?q=34.0332500,133.0121800",https://images.meqqe.jp/post_images/cyBct6O4dtdYIwCTaxdLSO9j2VOb1pUIuDaw7j0t.jpg,34.0332500,133.0121800
https://meqqe.jp/spots/10356957,AED @桜井公民館 玄関ホール内（玄関に入って左壁に移設）,愛媛県今治市桜井３丁目6-8,,,"https://local.google.co.jp/maps?q=34.0185500,133.0355900",https://images.meqqe.jp/post_images/vyC89AWIeQEhfSb4bDrBw25037vZT55cxERlU6iX.jpg,34.0185500,133.0355900
https://meqqe.jp/spots/10356956,AED @波方公民館 1Ｆロビー（正面自動ドアを入って左側）,愛媛県今治市波方町樋口250,,,"https://local.google.co.jp/maps?q=34.0978300,132.9521300",https://images.meqqe.jp/post_images/Dbh3OeAf2aUKDkBAQrCsPyCoVH3nT3T98LJlbm0b.jpg,34.0978300,132.9521300
https://meqqe.jp/spots/10356955,AED @常盤公民館 事務所前,愛媛県今治市南日吉町２丁目2-9,,,"https://local.google.co.jp/maps?q=34.0573400,132.9933700",https://images.meqqe.jp/post_images/W0IU8vJSHzBBjgqLcLnLd8aLBLUFKqOgkldJFgIB.jpg,34.0573400,132.9933700
https://meqqe.jp/spots/10356954,AED @中央公民館 1F事務室受付カウンター右,愛媛県今治市南宝来町１丁目6-1,,,"https://local.google.co.jp/maps?q=34.0622700,132.9977900",https://images.meqqe.jp/post_images/kGYDjGaj2r96ab5gYVZ2yDnR8cPBBPIsjGeRvtbX.jpg,34.0622700,132.9977900
https://meqqe.jp/spots/10356953,AED @大三島少年自然の家 事務室前,愛媛県今治市大三島町肥海4762-1,,,"https://local.google.co.jp/maps?q=34.2684900,132.9831900",https://images.meqqe.jp/post_images/DFOJcuZL9mshjvNcVy4gjcnDMaJSDzyTAKFLbM5A.jpg,34.2684900,132.9831900
https://meqqe.jp/spots/10356952,AED @朝倉ふれあい交流ｾﾝﾀｰ 玄関,愛媛県今治市朝倉下乙104-2,,,"https://local.google.co.jp/maps?q=34.0003400,133.0062500",https://images.meqqe.jp/post_images/BN3PXm0iNT7iCbXzQhMeEb2YSVPDyuT7wQRgLwsW.jpg,34.0003400,133.0062500
https://meqqe.jp/spots/10356951,AED @上浦開発総合センター 1F事務室前ロビー,愛媛県今治市上浦町井口5931-1,,,"https://local.google.co.jp/maps?q=34.2633400,133.0373900",https://images.meqqe.jp/post_images/KppmYNXNnirrYQYnCxc4SRkPnEOHl0IVjtPsuk1q.jpg,34.2633400,133.0373900
https://meqqe.jp/spots/10356950,AED @サン・アビリティーズ今治 １階　体育室入口横,愛媛県今治市喜田村２丁目1-10,,,"https://local.google.co.jp/maps?q=34.0484500,133.0183100",https://images.meqqe.jp/post_images/FGEXvFfMWtc1qU1OojQDIGETBKmlkJPyVIlzq2in.jpg,34.0484500,133.0183100
https://meqqe.jp/spots/10356949,AED @鈍川せせらぎ交流館 １階ロビー,愛媛県今治市玉川町鈍川甲218-1,,,"https://local.google.co.jp/maps?q=33.9848700,132.9404500",https://images.meqqe.jp/post_images/P2If4nmKLJPGoZsZWalKH62mMDBqEHNC4Eyhhnc2.jpg,33.9848700,132.9404500
https://meqqe.jp/spots/10356948,AED @多々羅キャンプ場 管理棟内,愛媛県今治市上浦町井口7523,,,"https://local.google.co.jp/maps?q=34.2577500,133.0523200",https://images.meqqe.jp/post_images/cBI2aDkK7WXdHoqsRzqd3q93QjHJYqhkQYyTtXqn.jpg,34.2577500,133.0523200
https://meqqe.jp/spots/10356947,AED @マーレ・グラッシア大三島 事務所左斜め前壁面 廊下,愛媛県今治市大三島町宮浦5902,,,"https://local.google.co.jp/maps?q=34.2415720,132.9938680",https://images.meqqe.jp/post_images/L3AmW3lJg84M3jWKFn8DwgGDHaiKfaLzqucIw8Ef.jpg,34.2415720,132.9938680
https://meqqe.jp/spots/10356977,AED @伯方体育センター 体育センター入口横,愛媛県今治市伯方町叶浦甲1688-29,,,"https://local.google.co.jp/maps?q=34.2032620,133.0744400",https://images.meqqe.jp/post_images/BPw3lw0CgdqXOJsqqQ1ejuFNYRjpk7MPRe7Vwwo2.jpg,34.2032620,133.0744400
https://meqqe.jp/spots/10356975,AED @老人ふれあいの家 事務所,愛媛県今治市町谷甲465-1,,,"https://local.google.co.jp/maps?q=34.0216800,133.0004900",https://images.meqqe.jp/post_images/urluRH5S4ZkA1B6unj5rorrmWLu5hh1goLflfQnK.jpg,34.0216800,133.0004900
https://meqqe.jp/spots/10356974,AED @大三島公民館 １階ロビー,愛媛県今治市大三島町宮浦５７０８,,,"https://local.google.co.jp/maps?q=34.2488900,132.9952600",https://images.meqqe.jp/post_images/L4lS25hN2vIq1MEFq5WdZvrjzdDrnzX8UCm2t2K2.jpg,34.2488900,132.9952600
https://meqqe.jp/spots/10356973,AED @関前支所 玄関カウンター左柱,愛媛県今治市関前岡村甲732,,,"https://local.google.co.jp/maps?q=34.1839700,132.8827300",https://images.meqqe.jp/post_images/n5IArpKxHODkqwPuKTu4wG8dXZIUokWLyFOjmCGy.jpg,34.1839700,132.8827300
https://meqqe.jp/spots/10356972,AED @大三島支所 庁舎１階 ロビー左奥の柱,愛媛県今治市大三島町宮浦5708,,,"https://local.google.co.jp/maps?q=34.2489300,132.9958300",https://images.meqqe.jp/post_images/vkFqXEWmAcWziI0C1RJ3uHR0ntVP0dk0OiJOlrZE.jpg,34.2489300,132.9958300
https://meqqe.jp/spots/10356971,AED @上浦支所 庁舎１階 ロビー入口左手前の柱,愛媛県今治市上浦町井口6605,,,"https://local.google.co.jp/maps?q=34.2634200,133.0401700",https://images.meqqe.jp/post_images/JTl7ATo8d6Z2A0IJGhtDqUWWE2Y6oOjPbfoKOuk9.jpg,34.2634200,133.0401700
https://meqqe.jp/spots/10356969,AED @宮窪支所 １階 ロビー入って左側壁面,愛媛県今治市宮窪町宮窪2668,,,"https://local.google.co.jp/maps?q=34.1729300,133.0756800",https://images.meqqe.jp/post_images/LimNcRXFNE8dp67TcGRQkjl9esN37B74nSfUDrHc.jpg,34.1729300,133.0756800
https://meqqe.jp/spots/10356968,AED @吉海支所 １階 ロビー,愛媛県今治市吉海町八幡137,,,"https://local.google.co.jp/maps?q=34.1452500,133.0431900",https://images.meqqe.jp/post_images/hAJVi9CdY1mohr6Q0wYwIS592m5HrBvrU39Y6ASl.jpg,34.1452500,133.0431900
https://meqqe.jp/spots/10356967,AED @菊間支所 １階 正面玄関　右側,愛媛県今治市菊間町浜840,,,"https://local.google.co.jp/maps?q=34.0341400,132.8421700",https://images.meqqe.jp/post_images/EM90hbwWpWb24O41fDCTu3l9AioeBB1yS7LJk6kI.jpg,34.0341400,132.8421700
https://meqqe.jp/spots/10356966,AED @大西支所 １階 正面玄関入って右側柱,愛媛県今治市大西町宮脇甲506-1,,,"https://local.google.co.jp/maps?q=34.0603300,132.9253300",https://images.meqqe.jp/post_images/KOSFFSeeRc5uHGKBAngO9nj4rCyFjFks8mRbnDAt.jpg,34.0603300,132.9253300
https://meqqe.jp/spots/10356965,AED @玉川支所 １階 玄関左,愛媛県今治市玉川町三反地甲10,,,"https://local.google.co.jp/maps?q=34.0191600,132.9416100",https://images.meqqe.jp/post_images/rgYhpKv7mfp6k6yvFRdGw2D5cTARbbBMoMmPhIGA.jpg,34.0191600,132.9416100
https://meqqe.jp/spots/10356964,AED @朝倉支所 １階 正面玄関入って右側,愛媛県今治市朝倉北甲397,,,"https://local.google.co.jp/maps?q=33.9959700,133.0219200",https://images.meqqe.jp/post_images/415GgZPnLUxxKoKYX0eusHnD9WAVi6LSguqSplqF.jpg,33.9959700,133.0219200
https://meqqe.jp/spots/10356963,AED @今治市役所 本館1階　総合受付横,愛媛県今治市別宮町１丁目4-1,,,"https://local.google.co.jp/maps?q=34.0662900,132.9977900",https://images.meqqe.jp/post_images/Zi2mPxGTLRWuWRJt9FajC9nDxC4yxCvLrACAi6Ej.jpg,34.0662900,132.9977900
https://meqqe.jp/spots/10356962,AED @波止浜公民館 １階事務所入口,愛媛県今治市地堀１丁目3-47,,,"https://local.google.co.jp/maps?q=34.1059400,132.9660900",https://images.meqqe.jp/post_images/bdLqhoGmeVR4v0v8OTrTaD6GM0zYsJZoQfM61ni1.jpg,34.1059400,132.9660900
https://meqqe.jp/spots/10356961,AED @乃万公民館 事務所内,愛媛県今治市延喜甲237-5,,,"https://local.google.co.jp/maps?q=34.0649900,132.9587300",https://images.meqqe.jp/post_images/z2evws3Y6vmQ6Md9JMdsnXitGL3vmzABS1tG9KM4.jpg,34.0649900,132.9587300
https://meqqe.jp/spots/10356960,AED @日高公民館 １階ホール,愛媛県今治市小泉４丁目11-28,,,"https://local.google.co.jp/maps?q=34.0473100,132.9795200",https://images.meqqe.jp/post_images/o7hVaLejScuQBwDsGHqXEcKf3Pt3hxjtWjV2okSI.jpg,34.0473100,132.9795200
https://meqqe.jp/spots/10356997,AED @玉川総合公園運動場 多目的体育館 事務所内,愛媛県今治市玉川町摺木甲108,,,"https://local.google.co.jp/maps?q=34.0224700,132.9356500",https://images.meqqe.jp/post_images/oqYpqyznGE1rUJk91RMvETTCc6CLYtTq3j5OQCQ7.jpg,34.0224700,132.9356500
https://meqqe.jp/spots/10356996,AED @クアハウス今治 ３Fプール監視・救護室 テーブル上,愛媛県今治市湯ノ浦36,,,"https://local.google.co.jp/maps?q=33.9941400,133.0533400",https://images.meqqe.jp/post_images/7mDdWbKJjLMUzuRMmWlmvFR6WjqtNoZYYpKMNEPh.jpg,33.9941400,133.0533400
https://meqqe.jp/spots/10356995,AED @クアハウス今治 玄関入口 ロビー右壁面,愛媛県今治市湯ノ浦36,,,"https://local.google.co.jp/maps?q=33.9943200,133.0534900",https://images.meqqe.jp/post_images/6fd9AJYBqtLLZqgIch81usRkkwYjBJOqIAeFqkEW.jpg,33.9943200,133.0534900
https://meqqe.jp/spots/10356994,AED @関前岡村診療所 玄関入口 風除室 左壁面,愛媛県今治市関前岡村甲１８－２,,,"https://local.google.co.jp/maps?q=34.1850300,132.8851200",https://images.meqqe.jp/post_images/0Nbh7EoexzqoxQ7V201Z8NTWZU4SbwzEpYYizCHO.jpg,34.1850300,132.8851200
https://meqqe.jp/spots/10356993,AED @玉川総合公園運動場 多目的体育館 事務所前,愛媛県今治市玉川町摺木甲108,,,"https://local.google.co.jp/maps?q=34.0224300,132.9356300",https://images.meqqe.jp/post_images/LuH3zMCBLNSHPkkP7FpfZ4dzcXS7IiYmqFeDF4nD.jpg,34.0224300,132.9356300
https://meqqe.jp/spots/10356992,AED @菊間緑の広場公園運動場 総合体育館 事務所内,愛媛県今治市菊間町池原1691-1,,,"https://local.google.co.jp/maps?q=34.0312600,132.8618900",https://images.meqqe.jp/post_images/m7Dl2rNdNrXQTqTzNALLDhGc0nmbS0Xlz0kH4tss.jpg,34.0312600,132.8618900
https://meqqe.jp/spots/10356991,AED @玉川艇庫 シャッター（１）左側,愛媛県今治市玉川町竜岡下乙１７－１,,,"https://local.google.co.jp/maps?q=33.9924900,132.9150100",https://images.meqqe.jp/post_images/oKXVtupR2orTGOoar7XO0mo0YV33hmijTtiRksv4.jpg,33.9924900,132.9150100
https://meqqe.jp/spots/10356990,AED @波方公園体育館 玄関ロビー,愛媛県今治市波方町樋口乙730,,,"https://local.google.co.jp/maps?q=34.1019900,132.9497100",https://images.meqqe.jp/post_images/NyVEKVjTSHkAL3nilpJJid65VTLDnPhmJ1AbGERe.jpg,34.1019900,132.9497100
https://meqqe.jp/spots/10356989,AED @桜井スポーツランド 管理事務所,愛媛県今治市桜井甲1054-3,,,"https://local.google.co.jp/maps?q=34.0097100,133.0486200",https://images.meqqe.jp/post_images/s83mmbxGh78DGQviBayxDqN2ItkEGyTKqvYCeUuC.jpg,34.0097100,133.0486200
https://meqqe.jp/spots/10356988,AED @今治市営球場 玄関,愛媛県今治市大新田町５丁目111-7,,,"https://local.google.co.jp/maps?q=34.0796600,132.9894700",https://images.meqqe.jp/post_images/cQD4uLHp9E0i6E3r9Diq4eMO5qltiLHKWxKjdzXE.jpg,34.0796600,132.9894700
https://meqqe.jp/spots/10356987,AED @桜井海浜ふれあい広場 クラブハウス,愛媛県今治市桜井1130-2,,,"https://local.google.co.jp/maps?q=34.0052100,133.0511000",https://images.meqqe.jp/post_images/yatztUJuK5KlizCTul6hD6iJI83j5o50Uc6wWOzj.jpg,34.0052100,133.0511000
https://meqqe.jp/spots/10356986,AED @今治市中央体育館 事務所前下駄箱台,愛媛県今治市別宮町6丁目2-2,,,"https://local.google.co.jp/maps?q=34.0725100,132.9931800",https://images.meqqe.jp/post_images/xivy46tzwFwBvWcMlXEXvmOwzmSIrlDTKB43fhsh.jpg,34.0725100,132.9931800
https://meqqe.jp/spots/10356985,AED @朝倉B&G海洋センター（プール） 玄関ロビー,愛媛県今治市朝倉下乙104-2,,,"https://local.google.co.jp/maps?q=34.0006900,133.0070500",https://images.meqqe.jp/post_images/4UixvAboDPnC6mMSZpiz1MWG9Bp31QzPuAxbX3Bg.jpg,34.0006900,133.0070500
https://meqqe.jp/spots/10356984,AED @しまなみドーム（上浦多々羅ｽﾎﾟｰﾂ公園運動場） 正面玄関奥,愛媛県今治市上浦町井口7074-20,,,"https://local.google.co.jp/maps?q=34.2612100,133.0470800",https://images.meqqe.jp/post_images/MQutLZN2xTm7dAJrWOOEUxicqJXMpxnqnKRl0Xzg.jpg,34.2612100,133.0470800
https://meqqe.jp/spots/10356983,AED @大西体育館 競技場入口,愛媛県今治市大西町新町797,,,"https://local.google.co.jp/maps?q=34.0645400,132.9253600",https://images.meqqe.jp/post_images/5TGPWlmId9Ytkw1PWkLa2HZsIl3e8b0yJP5sTgfQ.jpg,34.0645400,132.9253600
https://meqqe.jp/spots/10356982,AED @宮窪石文化運動公園 みやくぼ石文化交流館,愛媛県今治市宮窪町宮窪3543,,,"https://local.google.co.jp/maps?q=34.1612400,133.0716300",https://images.meqqe.jp/post_images/GsT07bjqcViQudiPnih3LLLGo9Da6JPVwRVSdxOe.jpg,34.1612400,133.0716300
https://meqqe.jp/spots/10356981,AED @大三島緑の村運動広場 管理棟内,愛媛県今治市大三島町口総1269,,,"https://local.google.co.jp/maps?q=34.2207100,132.9666300",https://images.meqqe.jp/post_images/dZDdwuoMgkbB5n3arFbzOHF03vsVLjlT6ikV8kyu.jpg,34.2207100,132.9666300
https://meqqe.jp/spots/10356980,AED @宮窪石文化運動公園 野球場事務所,愛媛県今治市宮窪町宮窪3546,,,"https://local.google.co.jp/maps?q=34.1599200,133.0696100",https://images.meqqe.jp/post_images/UCx6zI7MRohsTSwLN8vsuucYYWSdML2hbSz6BKFq.jpg,34.1599200,133.0696100
https://meqqe.jp/spots/10356979,AED @宮窪石文化運動公園 石文化伝承館玄関フロア,愛媛県今治市宮窪町宮窪3546,,,"https://local.google.co.jp/maps?q=34.1605400,133.0718400",https://images.meqqe.jp/post_images/w6rbAWqGf1jhHv6E7NjCHmKra7v36FckJe7Ojtyp.jpg,34.1605400,133.0718400
https://meqqe.jp/spots/10356978,AED @吉海B&G海洋センター体育館 玄関ホール廊下壁面,愛媛県今治市吉海町福田1290,,,"https://local.google.co.jp/maps?q=34.1553090,133.0419200",https://images.meqqe.jp/post_images/rmAXslJJL25LSuGwbI01XxrCccOoONdtOBEPwL6r.jpg,34.1553090,133.0419200
https://meqqe.jp/spots/10357016,AED @波方公園運動場プール 事務所,愛媛県今治市波方町樋口乙７３０,,,"https://local.google.co.jp/maps?q=34.1043400,132.9497100",https://images.meqqe.jp/post_images/ZwjB6YJIGp9bcuNodQaT1qqEIdZvunxI7d7imZeB.jpg,34.1043400,132.9497100
https://meqqe.jp/spots/10357015,AED @波方公園運動場野球場 野球場バックスタンド　玄関,愛媛県今治市波方町樋口乙７３０,,,"https://local.google.co.jp/maps?q=34.1038900,132.9499000",https://images.meqqe.jp/post_images/HLcCaxCB8xzCeoDmqP3IlhjZIaFaTWdFzmeO2OUN.jpg,34.1038900,132.9499000
https://meqqe.jp/spots/10357014,AED @鹿ノ子プール 事務所,愛媛県今治市町谷４４３－１,,,"https://local.google.co.jp/maps?q=34.0208750,132.9994100",https://images.meqqe.jp/post_images/unMoSv7ab4Tvf71NDM5j1RuQA5MiKSNel5KytKDT.jpg,34.0208750,132.9994100
https://meqqe.jp/spots/10357013,AED @ところミュージアム大三島 屋外通路壁面,愛媛県今治市大三島町浦戸２３６２－３,,,"https://local.google.co.jp/maps?q=34.2150000,132.9521900",https://images.meqqe.jp/post_images/JJMqfFxotkfksIvxn63LVXd9Wh4YlnhTWobHOQJz.jpg,34.2150000,132.9521900
https://meqqe.jp/spots/10357012,AED @大三島美術館 受付近くの自動ドア外壁面,愛媛県今治市大三島町宮浦９０９９－１,,,"https://local.google.co.jp/maps?q=34.2491300,133.0035100",https://images.meqqe.jp/post_images/wlTbZExTrOy3JsvFGSp0tvAQ9APHXSNWZ1jzgRGi.jpg,34.2491300,133.0035100
https://meqqe.jp/spots/10357011,AED @村上海賊ミュージアム 1Fロビー階段側面,愛媛県今治市宮窪町宮窪１２８５,,,"https://local.google.co.jp/maps?q=34.1688400,133.0874400",https://images.meqqe.jp/post_images/9AJv0nX7ke7dMhqgeqIKCldr9HqFVBXcqgwUKFAr.jpg,34.1688400,133.0874400
https://meqqe.jp/spots/10357010,AED @大西藤山歴史資料館 玄関スペース,愛媛県今治市大西町宮脇乙５７９－１,,,"https://local.google.co.jp/maps?q=34.0600890,132.9291400",https://images.meqqe.jp/post_images/gJA8tcZ1w5poRa3vQfMHkuWBrv6zZ9VdEwyYk6Sl.jpg,34.0600890,132.9291400
https://meqqe.jp/spots/10357009,AED @朝倉ふるさと美術古墳館 １階正面玄関,愛媛県今治市朝倉下８９８,,,"https://local.google.co.jp/maps?q=33.9996100,133.0076200",https://images.meqqe.jp/post_images/CriKi7PbGopkScPHIRbpM1LN2FCT5iQ3FS5pso6R.jpg,33.9996100,133.0076200
https://meqqe.jp/spots/10357008,AED @吉海郷土文化センター 1階ロビー　階段右側壁面,愛媛県今治市吉海町福田１２９０,,,"https://local.google.co.jp/maps?q=34.1550000,133.0424800",https://images.meqqe.jp/post_images/kHO5E46etWXFxa52A5fjliRuE7f9qOH95ZQkzQed.jpg,34.1550000,133.0424800
https://meqqe.jp/spots/10357007,AED @今治城 職員玄関口,愛媛県今治市通町３丁目１－３,,,"https://local.google.co.jp/maps?q=34.0633400,133.0068200",https://images.meqqe.jp/post_images/DVImBJhFSLbyX6Un0gJ8VekaGuRMGisy3lFQM67U.jpg,34.0633400,133.0068200
https://meqqe.jp/spots/10357006,AED @河野美術館 1階玄関ロビー,愛媛県今治市旭町１丁目４－８,,,"https://local.google.co.jp/maps?q=34.0627400,132.9989800",https://images.meqqe.jp/post_images/tvAKRWx4ISgPVSg9yJeM7AUu4c3eVRyNSSGgWEEJ.jpg,34.0627400,132.9989800
https://meqqe.jp/spots/10357005,AED @上浦歴史民俗資料館 受付窓口横,愛媛県今治市上浦町井口7505,,,"https://local.google.co.jp/maps?q=34.2557100,133.0539500",https://images.meqqe.jp/post_images/eAmLOexZJn3mghwrHsu2kaC26LQFdVdTN6OKTe3o.jpg,34.2557100,133.0539500
https://meqqe.jp/spots/10357004,AED @玉川近代美術館 1階玄関ロビー,愛媛県今治市玉川町大野甲86-4,,,"https://local.google.co.jp/maps?q=34.0220400,132.9445300",https://images.meqqe.jp/post_images/JXNFw1k26Ef3Pirz6TweTI1D5Fib6G9aYMwIT35m.jpg,34.0220400,132.9445300
https://meqqe.jp/spots/10357003,AED @（旧）今治市立上朝小学校 体育館玄関内の棚,愛媛県今治市朝倉上甲776-1,,,"https://local.google.co.jp/maps?q=33.9763800,133.0065500",https://images.meqqe.jp/post_images/iFzInlFPEvMx39i4n0D8er0cIefk5YQmnO3DK0nh.jpg,33.9763800,133.0065500
https://meqqe.jp/spots/10357002,AED @（旧）今治市立城東小学校 体育館玄関,愛媛県今治市東門町4丁目3-16,,,"https://local.google.co.jp/maps?q=34.0597600,133.0138500",https://images.meqqe.jp/post_images/1ZioUeidJCoMLyiOBkmB32Ev98KzNkKSUxWMya23.jpg,34.0597600,133.0138500
https://meqqe.jp/spots/10357001,AED @（旧）今治市立日吉小学校 体育館玄関,愛媛県今治市南宝来町１丁目6-1,,,"https://local.google.co.jp/maps?q=34.0618200,132.9986400",https://images.meqqe.jp/post_images/ZGNAfMLOGChmUVYR24LFrqZu4zC7u7fqlOa1I9iG.jpg,34.0618200,132.9986400
https://meqqe.jp/spots/10357000,AED @（旧）今治市立美須賀小学校 体育館玄関,愛媛県今治市黄金町1丁目9-2,,,"https://local.google.co.jp/maps?q=34.0658700,133.0035500",https://images.meqqe.jp/post_images/QUx3tUZeJW3LV5gl9rUjgGxmVKM7t2P7M0j4gQp3.jpg,34.0658700,133.0035500
https://meqqe.jp/spots/10356999,AED @（旧）今治市立今治小学校 体育館玄関,愛媛県今治市南大門町2丁目5-1,,,"https://local.google.co.jp/maps?q=34.0665900,132.9955200",https://images.meqqe.jp/post_images/clajJ57a0IzMLoyBBQpigM5vh10U7SxMAqTuIJ8h.jpg,34.0665900,132.9955200
https://meqqe.jp/spots/10356998,AED @今治市立中央図書館 1階総合カウンター横,愛媛県今治市常盤町5丁目203-2,,,"https://local.google.co.jp/maps?q=34.0618100,132.9944200",https://images.meqqe.jp/post_images/sZp9zsIWOYNBVgRUbJomNHI6bbreMGfivdMrcKzL.jpg,34.0618100,132.9944200
https://meqqe.jp/spots/10357036,AED @来島観光休憩所 入口壁面,愛媛県今治市来島572,,,"https://local.google.co.jp/maps?q=34.1168400,132.9696100",https://images.meqqe.jp/post_images/ZmMq7fj2vI752YnNWuFWiI9DWEXtaZNpKkMWYUBd.jpg,34.1168400,132.9696100
https://meqqe.jp/spots/10357035,AED @小島集会所 受付カウンター上,愛媛県今治市来島小島９０,,,"https://local.google.co.jp/maps?q=34.1229800,132.9783000",https://images.meqqe.jp/post_images/1SnTZvaJ7XXFDe32OlQ1bF2HAze3Obp948mLLnqk.jpg,34.1229800,132.9783000
https://meqqe.jp/spots/10357034,AED @関前小大下地区 住民センター 受付カウンター下,愛媛県今治市関前小大下乙1352-2,,,"https://local.google.co.jp/maps?q=34.1903600,132.9001400",https://images.meqqe.jp/post_images/QeMJeJgoEm9Zf3CEdkxJsVUPZH1HIjGtDgihrIHn.jpg,34.1903600,132.9001400
https://meqqe.jp/spots/10357033,AED @関前大下地区 住民センター 入口左 壁面,愛媛県今治市関前大下甲６５－１,,,"https://local.google.co.jp/maps?q=34.1884700,132.9229200",https://images.meqqe.jp/post_images/bXliDdjnC5qldAJU2XoRAsT7olarQPsxERXL6ofU.jpg,34.1884700,132.9229200
https://meqqe.jp/spots/10357032,AED @大新田公園 管理事務所,愛媛県今治市大新田町５丁目11-7,,,"https://local.google.co.jp/maps?q=34.0786900,132.9906700",https://images.meqqe.jp/post_images/JYxNO3JZviyY0TFYCZwZ3ztVXMbUYkWP81lo7SJ4.jpg,34.0786900,132.9906700
https://meqqe.jp/spots/10357031,AED @国分公民館 １階正面玄関トイレ横(屋外),愛媛県今治市唐子台東３丁目２３－６,,,"https://local.google.co.jp/maps?q=34.0284300,133.0304700",https://images.meqqe.jp/post_images/l9Uh0GUze2MHuCLajqrtnTMJsZMrpL7TfhfKhyPL.jpg,34.0284300,133.0304700
https://meqqe.jp/spots/10357030,AED @城東公民館 １階正面玄関ロビー,愛媛県今治市東門町４丁目１－６,,,"https://local.google.co.jp/maps?q=34.0604800,133.0128400",https://images.meqqe.jp/post_images/DctC8b8zbkAYSFJe2hjx0VOGHO8v4tol5dZZt4WN.jpg,34.0604800,133.0128400
https://meqqe.jp/spots/10357029,AED @鳥生公民館 １階図書室前,愛媛県今治市土橋町１丁目８－４２,,,"https://local.google.co.jp/maps?q=34.0491100,133.0038700",https://images.meqqe.jp/post_images/XxWuHaFUOicO0qlu0GXriqJI6LPi4KrcqgOrk80J.jpg,34.0491100,133.0038700
https://meqqe.jp/spots/10357028,AED @立花カルチャーセンター １階ホール,愛媛県今治市郷六ヶ内町２丁目２－７,,,"https://local.google.co.jp/maps?q=34.0456700,132.9980100",https://images.meqqe.jp/post_images/WeJoMCebRb95b0zpQQAZbe1bEjNMPpgBfdUKLj79.jpg,34.0456700,132.9980100
https://meqqe.jp/spots/10357027,AED @近見公民館 玄関ホール,愛媛県今治市湊町１丁目１－３９,,,"https://local.google.co.jp/maps?q=34.0860600,132.9896200",https://images.meqqe.jp/post_images/jLQmY4eZrUrcNGP9qWIB5YfENgccTOebKN1NUpHP.jpg,34.0860600,132.9896200
https://meqqe.jp/spots/10357026,AED @別宮公民館 １階玄関（屋内）,愛媛県今治市大正町４丁目２－７,,,"https://local.google.co.jp/maps?q=34.0712800,132.9961400",https://images.meqqe.jp/post_images/GD7jQJbsY4ZG5v6ekKBPwt4Xd6Le8Iqndgbck7hj.jpg,34.0712800,132.9961400
https://meqqe.jp/spots/10357025,AED @日吉公民館 １階ホール,愛媛県今治市末広町４丁目６－２,,,"https://local.google.co.jp/maps?q=34.0592800,133.0059500",https://images.meqqe.jp/post_images/1aghJQMNQdIvcNjiY4hd0dGheFKidpBZrzaUEk96.jpg,34.0592800,133.0059500
https://meqqe.jp/spots/10357024,AED @美須賀コミュニティプラザ １階正面玄関（屋外）,愛媛県今治市室屋町１丁目２－５,,,"https://local.google.co.jp/maps?q=34.0679500,133.0018600",https://images.meqqe.jp/post_images/OFEwpJb47q4NqofdzKZTRwOxeMB2zpOjDFGhBCfM.jpg,34.0679500,133.0018600
https://meqqe.jp/spots/10357023,AED @今治公民館 １階ホール受付横,愛媛県今治市北宝来町３丁目２－９,,,"https://local.google.co.jp/maps?q=34.0669200,132.9934100",https://images.meqqe.jp/post_images/y3zQuYWGQxtXVLSpWaFL2raW3adGkZX4zvWuQohw.jpg,34.0669200,132.9934100
https://meqqe.jp/spots/10357022,AED @旧亀岡学習センター 正面玄関右側柱,愛媛県今治市菊間町佐方２１３６,,,"https://local.google.co.jp/maps?q=34.0538000,132.8747100",https://images.meqqe.jp/post_images/08Prg4e6XiLnJqU4VbYUHKtYa8JSBp16CTneKqkY.jpg,34.0538000,132.8747100
https://meqqe.jp/spots/10357021,AED @関前開発総合センター 事務所窓口右横,愛媛県今治市関前岡村２－５,,,"https://local.google.co.jp/maps?q=34.1842200,132.8859500",https://images.meqqe.jp/post_images/PTfzyJ0nuNNayHZ3jJUQPZM9BB9yjrbbXO7a9idZ.jpg,34.1842200,132.8859500
https://meqqe.jp/spots/10357020,AED @吉海学習交流館 玄関ロビー,愛媛県今治市吉海町八幡１３７,,,"https://local.google.co.jp/maps?q=34.1457200,133.0428100",https://images.meqqe.jp/post_images/zEYM88oEX5F8hltQKvsw6oi8lrsE6aQUhrjnA7GW.jpg,34.1457200,133.0428100
https://meqqe.jp/spots/10357019,AED @吉海B&G海洋センター 艇庫 体育館事務所,愛媛県今治市吉海町福田１２９０,,,"https://local.google.co.jp/maps?q=34.1552840,133.0418500",https://images.meqqe.jp/post_images/9roJGqDPrF692f9qJbkJQEk0v8TDmL04r6Cmbph8.jpg,34.1552840,133.0418500
https://meqqe.jp/spots/10357018,AED @波方公園運動場武道場 玄関ロビー,愛媛県今治市波方町樋口乙７３０,,,"https://local.google.co.jp/maps?q=34.1041770,132.9501000",https://images.meqqe.jp/post_images/EUE6ppMOSHC3sPpzSOYSKrSBcOZfBJNVVp1LBQrJ.jpg,34.1041770,132.9501000
https://meqqe.jp/spots/10357017,AED @波方公園運動場庭球場 武道場事務所内,愛媛県今治市波方町樋口乙７３０,,,"https://local.google.co.jp/maps?q=34.1042060,132.9501600",https://images.meqqe.jp/post_images/vAqxQNgmX41lm0e6njAyMNJw2DTL5KXGLSf0ZklV.jpg,34.1042060,132.9501600
https://meqqe.jp/spots/10357056,AED @今治育成園 玄関内,愛媛県今治市町谷７４６,,,"https://local.google.co.jp/maps?q=34.0111100,133.0065100",https://images.meqqe.jp/post_images/wXjtbjt3RLQxIbFwTyXKuY8plsv8NYDotgn31Wcj.jpg,34.0111100,133.0065100
https://meqqe.jp/spots/10357055,AED @しまなみアースランド（今治西部丘陵公園）　 学習棟入口左,愛媛県今治市高地町２丁目乙４２９－１,,,"https://local.google.co.jp/maps?q=34.0731700,132.9725200",https://images.meqqe.jp/post_images/XKDVX5roTUmDmRFNGv5BoO2eF54IdAody02h4xxi.jpg,34.0731700,132.9725200
https://meqqe.jp/spots/10357054,AED @今治エコステーション 事務所内,愛媛県今治市町谷甲475-1,,,"https://local.google.co.jp/maps?q=34.0208800,133.0012900",https://images.meqqe.jp/post_images/8ngzqyiYmvJd9TVPRjZMdjZG2q1HK0DgJGFh5vVg.jpg,34.0208800,133.0012900
https://meqqe.jp/spots/10357053,AED @伯方農村環境改善ｾﾝﾀｰ １階正面玄関,愛媛県今治市伯方町北浦２１７４－１,,,"https://local.google.co.jp/maps?q=34.2262300,133.0947500",https://images.meqqe.jp/post_images/Iisf1xlyYOHdI0782bbXH9ateW5wnNqyfQ6OowJm.jpg,34.2262300,133.0947500
https://meqqe.jp/spots/10357052,AED @今治市さざなみ園 １階　玄関内,愛媛県今治市大三島町宮浦３３６,,,"https://local.google.co.jp/maps?q=34.2495200,133.0023100",https://images.meqqe.jp/post_images/UxYf3BCPNDuJk0uPN3DzseWQiEL4lAVxIJ8a57m0.jpg,34.2495200,133.0023100
https://meqqe.jp/spots/10357051,AED @今治市ひよこ園 １階　職員室内の医務室,愛媛県今治市石井町４丁目３－５３,,,"https://local.google.co.jp/maps?q=34.0852800,132.9853100",https://images.meqqe.jp/post_images/9w73y5zVfsLHM1HqQH0cx49ZILzv4Xj8sU2uRyaE.jpg,34.0852800,132.9853100
https://meqqe.jp/spots/10357050,AED @大翔苑 ｴﾝﾄﾗﾝｽﾎｰﾙ正面,愛媛県今治市大三島町宮浦１６０９,,,"https://local.google.co.jp/maps?q=34.2568700,133.0176300",https://images.meqqe.jp/post_images/lXKnSCgoqTScKsEn6qeGN9RPsEhXP29A2JkT6bVm.jpg,34.2568700,133.0176300
https://meqqe.jp/spots/10357049,AED @伯方斎場 待合棟待合ロビー右壁面,愛媛県今治市伯方町木浦１００３－２,,,"https://local.google.co.jp/maps?q=34.2039300,133.1068100",https://images.meqqe.jp/post_images/AThvtbP9XhZ2M7u668kkYUdwJFJM8BeL7wbuJ7mb.jpg,34.2039300,133.1068100
https://meqqe.jp/spots/10357048,AED @ふじさき苑 ｴﾝﾄﾗﾝｽﾎｰﾙ正面,愛媛県今治市吉海町仁江３２１７,,,"https://local.google.co.jp/maps?q=34.1464800,133.0475100",https://images.meqqe.jp/post_images/oiGxNSXf0uMXi4VPMJCNpgy19ZlQJsahQbv3FD2v.jpg,34.1464800,133.0475100
https://meqqe.jp/spots/10357047,AED @燧風苑 ｴﾝﾄﾗﾝｽﾎｰﾙ左奥壁面,愛媛県今治市山方町乙１丁目４５,,,"https://local.google.co.jp/maps?q=34.0654400,132.9802600",https://images.meqqe.jp/post_images/o5DsoH5etfNuodjFlyZKV826gh3UHNhK6IaYHkSZ.jpg,34.0654400,132.9802600
https://meqqe.jp/spots/10357046,AED @今治市岩田健母と子のミュージアム 手洗い場下,愛媛県今治市大三島町宗方５２０８－２,,,"https://local.google.co.jp/maps?q=34.1945500,132.9541200",https://images.meqqe.jp/post_images/RMMTrYlRYJwIoVTiahgodym55AtNTYWc9SoTR8P4.jpg,34.1945500,132.9541200
https://meqqe.jp/spots/10357045,AED @今治市伊東豊雄建築ミュージアム ティンバーハット入口,愛媛県今治市大三島町浦戸２４１８,,,"https://local.google.co.jp/maps?q=34.2138700,132.9504500",https://images.meqqe.jp/post_images/Qz9cUK4Eru7QRMTqrMWF72CnTQh2qkEUwUWgTpK4.jpg,34.2138700,132.9504500
https://meqqe.jp/spots/10357044,AED @御厩プール プール事務所,愛媛県今治市東門町３丁目２－２,,,"https://local.google.co.jp/maps?q=34.0612400,133.0125600",https://images.meqqe.jp/post_images/F9Wz7nPyhZ8hmsrvs0VU21LxJ7cN2spHFgE60ATL.jpg,34.0612400,133.0125600
https://meqqe.jp/spots/10357043,AED @菊間コミュニティーホール コミュニティーホール入口,愛媛県今治市菊間町浜８１２,,,"https://local.google.co.jp/maps?q=34.0338100,132.8413200",https://images.meqqe.jp/post_images/YR4Cf8z55CRKSxg6XDt7F6lJfgLwNpV6ZSAiq5Rv.jpg,34.0338100,132.8413200
https://meqqe.jp/spots/10357042,AED @富田海浜プール プール事務所,愛媛県今治市喜田村5丁目1073番地先,,,"https://local.google.co.jp/maps?q=34.0467200,133.0281200",https://images.meqqe.jp/post_images/IokXoddwnZy2HiBQH2XkGmmWpIQJ1K8mPlrnF89H.jpg,34.0467200,133.0281200
https://meqqe.jp/spots/10357041,AED @玉川総合公園多目的体育館多目的広場 事務所内,愛媛県今治市玉川町摺木１０８,,,"https://local.google.co.jp/maps?q=34.0224780,132.9356500",https://images.meqqe.jp/post_images/eEtWd3RPjJnCVvKcIt6bgdvFITsCts2UczoaPpUy.jpg,34.0224780,132.9356500
https://meqqe.jp/spots/10357040,AED @吉海B&G海洋センタープール 事務所内,愛媛県今治市吉海町福田１２９０,,,"https://local.google.co.jp/maps?q=34.1549600,133.0416100",https://images.meqqe.jp/post_images/Xcdj4uS5163zOrJ3oOV5ZklKiDlaRJugLJEu49lk.jpg,34.1549600,133.0416100
https://meqqe.jp/spots/10357039,AED @津島集会所（吉海） １階玄関内右,愛媛県今治市吉海町津島２１９,,,"https://local.google.co.jp/maps?q=34.1535400,133.0060600",https://images.meqqe.jp/post_images/jEenys2qZDNiWIZP3pwxokjbg297nWddA5eO5fQB.jpg,34.1535400,133.0060600
https://meqqe.jp/spots/10357038,AED @鵜島港待合室（宮窪） 1階待合室内右,愛媛県今治市宮窪町宮窪鵜島６７８９,,,"https://local.google.co.jp/maps?q=34.1833900,133.0877200",https://images.meqqe.jp/post_images/jbSAs6zoJJdXKe8r6mXnKPhturoSdG55M1bL73Z6.jpg,34.1833900,133.0877200
https://meqqe.jp/spots/10357037,AED @馬島集会所 入口入って左棚上,愛媛県今治市馬島１００６,,,"https://local.google.co.jp/maps?q=34.1163900,132.9910200",https://images.meqqe.jp/post_images/BovdXyxBSeYrKASmQBYgFWIqmrexpra5R7LcL7oC.jpg,34.1163900,132.9910200
https://meqqe.jp/spots/10357060,AED @城東保育所 事務室入り口横,愛媛県今治市美須賀町４丁目１－４８,,,"https://local.google.co.jp/maps?q=34.0594200,133.0115800",https://images.meqqe.jp/post_images/lJh1Xs37kJBd21TTFUcxW6KotHTzZFPIKZIGF7tr.jpg,34.0594200,133.0115800
https://meqqe.jp/spots/10357059,AED @吉海認定こども園 玄関入口,愛媛県今治市吉海町八幡５６,,,"https://local.google.co.jp/maps?q=34.1469700,133.0451400",https://images.meqqe.jp/post_images/tEbhZiR0KX569NoeRb1hM1e4A1ZGWeyC9PI9SXrC.jpg,34.1469700,133.0451400
https://meqqe.jp/spots/10357058,AED @今治市障害者福祉センターのぞみ苑 玄関内,愛媛県今治市石井町４丁目669-1,,,"https://local.google.co.jp/maps?q=34.0848900,132.9856800",https://images.meqqe.jp/post_images/2eiDkqn72KmXlsQHk377YVLE3tCi54IOjq8GuMPX.jpg,34.0848900,132.9856800
https://meqqe.jp/spots/10357057,AED @今治市障害者地域活動支援センター（ときめき） 玄関内受付横,愛媛県今治市天保山町２丁目２－１,,,"https://local.google.co.jp/maps?q=34.0674200,133.0098900",https://images.meqqe.jp/post_images/0TxCxeeymd7zCE8TJY6pyb1QZjDXx8jeeTovpiD3.jpg,34.0674200,133.0098900
https://meqqe.jp/spots/10357073,AED @養護老人ホーム清流園 １階 C棟(梅)入口廊下の壁,愛媛県今治市朝倉北甲４９７,,,"https://local.google.co.jp/maps?q=33.9979100,133.0229500",https://images.meqqe.jp/post_images/KVJYZYjiUosAo7oxopALgEKuZCZMkavPDE9Cg2lf.jpg,33.9979100,133.0229500
https://meqqe.jp/spots/10357072,AED @伯方認定こども園 玄関入ってすぐ左（ホール内）,愛媛県今治市伯方町木浦１２００－１,,,"https://local.google.co.jp/maps?q=34.2056400,133.1121100",https://images.meqqe.jp/post_images/SbH9ZVfMfa6TCj5HGQ2V5P7UoRCEXtUu9LMlOxMG.jpg,34.2056400,133.1121100
https://meqqe.jp/spots/10357071,AED @菊間保育所 玄関入ってすぐ左（ホール内）,愛媛県今治市菊間町長坂１９９９,,,"https://local.google.co.jp/maps?q=34.0326500,132.8447800",https://images.meqqe.jp/post_images/WGUY1YeGqeZMcyW1ze8k3e8Xr92eXrbJCvf0xuuh.jpg,34.0326500,132.8447800
https://meqqe.jp/spots/10357070,AED @九和保育所 玄関入ってすぐ右（ホール内）,愛媛県今治市玉川町大野甲８６－３,,,"https://local.google.co.jp/maps?q=34.0211300,132.9439700",https://images.meqqe.jp/post_images/6KxUtlrE0D9zqbkLYRVIDT2Nxz2XJqC1tbCzujIj.jpg,34.0211300,132.9439700
https://meqqe.jp/spots/10357069,AED @スポーツパーク 事務所前,愛媛県今治市高橋ふれあいの丘１－２,,,"https://local.google.co.jp/maps?q=34.0419500,132.9572100",https://images.meqqe.jp/post_images/FzqlujG48KMsEaNhxODPs4LUCSuiCEeYwEcAUyHA.jpg,34.0419500,132.9572100
https://meqqe.jp/spots/10357068,AED @大三島認定こども園 入り口のホールに面した遊戯室の壁,愛媛県今治市大三島町明日２４９３－１,,,"https://local.google.co.jp/maps?q=34.2513600,132.9973300",https://images.meqqe.jp/post_images/X0njcDJTnbFBvH1M4Z56mullQFaqQCSd0UzsTbYN.jpg,34.2513600,132.9973300
https://meqqe.jp/spots/10357067,AED @宮窪認定こども園 玄関入ってすぐ左（ホール内）,愛媛県今治市宮窪町宮窪２９０１,,,"https://local.google.co.jp/maps?q=34.1712300,133.0751400",https://images.meqqe.jp/post_images/iyaI4UbSsN50sAAVEyARIjFEPAh54ZBsGrQnz8Jc.jpg,34.1712300,133.0751400
https://meqqe.jp/spots/10357066,AED @亀岡保育所 玄関入ってすぐ右（ホール内）,愛媛県今治市菊間町佐方４９０,,,"https://local.google.co.jp/maps?q=34.0547400,132.8748300",https://images.meqqe.jp/post_images/0IDiHMkkzfxbF86M9sySj9nbzwT95difRD5LMav0.jpg,34.0547400,132.8748300
https://meqqe.jp/spots/10357065,AED @日の出保育所 玄関入ってすぐ左（ホール内）,愛媛県今治市玉川町小鴨部２３３－１,,,"https://local.google.co.jp/maps?q=34.0264500,132.9643900",https://images.meqqe.jp/post_images/yzlsX0Avrfw84l7rC6Msi2Oncw9yAZWM8CsAiByx.jpg,34.0264500,132.9643900
https://meqqe.jp/spots/10357064,AED @樋口保育所 玄関入ってすぐ左（ホール内）,愛媛県今治市波方町養老１０２４,,,"https://local.google.co.jp/maps?q=34.1011800,132.9473600",https://images.meqqe.jp/post_images/ARq6f0THXjAMNHp0vpL2Pr6HZ22Fc6DisBuDDmt1.jpg,34.1011800,132.9473600
https://meqqe.jp/spots/10357063,AED @上浦認定こども園 玄関ホール,愛媛県今治市上浦町井口５９３１－１,,,"https://local.google.co.jp/maps?q=34.2635700,133.0376900",https://images.meqqe.jp/post_images/beCnzykoibX1H3bhlJD4tSpQVFxSwxKP3XQ9mTbm.jpg,34.2635700,133.0376900
https://meqqe.jp/spots/10357062,AED @桜井保育所 玄関入ってすぐ左（ホール内）,愛媛県今治市登畑４０,,,"https://local.google.co.jp/maps?q=34.0221600,133.0219600",https://images.meqqe.jp/post_images/uaG3Yq1pUIA0w6l207fKHnRAyOZq8lqjOWMRDfvD.jpg,34.0221600,133.0219600
https://meqqe.jp/spots/10357061,AED @鳥生保育所 玄関ホール内,愛媛県今治市北鳥生町３丁目１－１５,,,"https://local.google.co.jp/maps?q=34.0542500,133.0073100",https://images.meqqe.jp/post_images/7wSZphNRaf2tOeY2uuPk87LUT6xrO9oOzNrc8e35.jpg,34.0542500,133.0073100
https://meqqe.jp/spots/10357092,AED @今治市立別宮小学校 職員室屋外階段出口横,愛媛県今治市別宮町５丁目１－7,,,"https://local.google.co.jp/maps?q=34.0710700,132.9926500",https://images.meqqe.jp/post_images/GJtHdTre58sYCwNllgK4demYdAjCG7P2ovcVVUAG.jpg,34.0710700,132.9926500
https://meqqe.jp/spots/10357091,AED @今治市立別宮小学校 体育館入口内,愛媛県今治市別宮町５丁目１－７,,,"https://local.google.co.jp/maps?q=34.0715970,132.9925000",https://images.meqqe.jp/post_images/YzRtnc6VP4GBb0bgf9VU2kYQCGNozEgxtmJuAJew.jpg,34.0715970,132.9925000
https://meqqe.jp/spots/10357090,AED @今治市立吹揚小学校 職員室運動場側出入口（屋外）,愛媛県今治市黄金町３丁目３,,,"https://local.google.co.jp/maps?q=34.0619700,133.0048400",https://images.meqqe.jp/post_images/VKnniri7vEemhcybdZY6ze5u3EzDax2hAPJ6ddNm.jpg,34.0619700,133.0048400
https://meqqe.jp/spots/10357089,AED @今治市立吹揚小学校 体育館玄関内,愛媛県今治市黄金町３丁目３,,,"https://local.google.co.jp/maps?q=34.0621300,133.0056300",https://images.meqqe.jp/post_images/EdtjpyZqEAOXOIv05kfXpte2Ae2vTspnDntMnpCc.jpg,34.0621300,133.0056300
https://meqqe.jp/spots/10357088,AED @椋名みなと公園 公園内トイレ,愛媛県今治市吉海町椋名６０２,,,"https://local.google.co.jp/maps?q=34.1368080,133.0193700",https://images.meqqe.jp/post_images/HIrQkkytmeTmRGTq3KV0KbGPjJ4SRap2O4eRGhRN.jpg,34.1368080,133.0193700
https://meqqe.jp/spots/10357087,AED @JFAアカデミー今治 玄関口,愛媛県今治市朝倉上甲７７６－１,,,"https://local.google.co.jp/maps?q=33.9759800,133.0063500",https://images.meqqe.jp/post_images/9iVwwqFLj7XFb7BvtwDpJI5FBJIOLwX9z67z9Sy1.jpg,33.9759800,133.0063500
https://meqqe.jp/spots/10357086,AED @今治市民活動センター 正面玄関ホール 奥の廊下右側,愛媛県今治市別宮町８丁目１－５５,,,"https://local.google.co.jp/maps?q=34.0732700,132.9907200",https://images.meqqe.jp/post_images/P8FUJlnFp5UEyNNmlq4C5rL57lYMvIxxEzPfFHvU.jpg,34.0732700,132.9907200
https://meqqe.jp/spots/10357085,AED @しまなみの駅御島 インフォメーション横（観光案内所）,愛媛県今治市大三島町宮浦３２６０,,,"https://local.google.co.jp/maps?q=34.2489700,133.0054300",https://images.meqqe.jp/post_images/1tMGmhCBx9yza6WkWODpZ294RAUlkYE7gVIjgRVr.jpg,34.2489700,133.0054300
https://meqqe.jp/spots/10357084,AED @マリンオアシスはかた 特産品売店レジカウンター奥下,愛媛県今治市伯方町叶浦１６６８－１,,,"https://local.google.co.jp/maps?q=34.2027300,133.0754800",https://images.meqqe.jp/post_images/p9svxEf8hSpBGLe6SJTJSbGg4gnRb5kHRhvBM8Lj.jpg,34.2027300,133.0754800
https://meqqe.jp/spots/10357083,AED @多々羅しまなみ公園 特産品売店レジ背面の棚,愛媛県今治市上浦町井口９１８０－２,,,"https://local.google.co.jp/maps?q=34.2546480,133.0542700",https://images.meqqe.jp/post_images/sb9UCRjK820m21hy2mV2uhd4xXrgI1QUM3GMEO7c.jpg,34.2546480,133.0542700
https://meqqe.jp/spots/10357082,AED @よしうみいきいき館 正面玄関入口すぐの観潮船乗船受付カウンター背面の棚,愛媛県今治市吉海町名４５２０－２,,,"https://local.google.co.jp/maps?q=34.1274600,133.0219600",https://images.meqqe.jp/post_images/cleDVwEnQ95mJ9Il2QxKZ6vTvhJhAGUyFDO9pVQ2.jpg,34.1274600,133.0219600
https://meqqe.jp/spots/10357081,AED @「道の駅」今治湯ノ浦温泉 レストラン入口右壁面,愛媛県今治市長沢２５２－２,,,"https://local.google.co.jp/maps?q=33.9928600,133.0484100",https://images.meqqe.jp/post_images/merIDGbbWsVfRlrdjLIAhla3BeeyPJbJzze3cYnn.jpg,33.9928600,133.0484100
https://meqqe.jp/spots/10357080,AED @今治下水浄化センター １階 正面玄関,愛媛県今治市天保山町４丁目６－２,,,"https://local.google.co.jp/maps?q=34.0634000,133.0173700",https://images.meqqe.jp/post_images/OYBZIH8zyg6wqLOZrrUBPsjWINCLoX6Z6rZ0na6d.jpg,34.0634000,133.0173700
https://meqqe.jp/spots/10357078,AED @常盤保育所 玄関正面のホール左の壁,愛媛県今治市南日吉町２丁目２－８,,,"https://local.google.co.jp/maps?q=34.0574100,132.9932500",https://images.meqqe.jp/post_images/jvsAmYAjkZClwtv7uDMDhvlOiGOuQWGFyVPXMe3L.jpg,34.0574100,132.9932500
https://meqqe.jp/spots/10357077,AED @日高保育所 玄関入ってすぐ左（ホール内）,愛媛県今治市別名５４９－１,,,"https://local.google.co.jp/maps?q=34.0461500,132.9751200",https://images.meqqe.jp/post_images/TJpmFRMR6ElS9IVGOPuJpYYfKkQ7LtutZh8yRnXY.jpg,34.0461500,132.9751200
https://meqqe.jp/spots/10357076,AED @富田保育所 玄関入ってすぐ左（ホール内）,愛媛県今治市上徳乙２８７－７,,,"https://local.google.co.jp/maps?q=34.0326800,133.0123400",https://images.meqqe.jp/post_images/2DxMiAJY1JH1LwkyUI3dnl8VyXWyS59NUjOS5uvz.jpg,34.0326800,133.0123400
https://meqqe.jp/spots/10357075,AED @乃万保育所 玄関入ってすぐ左（ホール内）,愛媛県今治市延喜３６５－２,,,"https://local.google.co.jp/maps?q=34.0634100,132.9573100",https://images.meqqe.jp/post_images/0qAMrBzYIy13R9QRhiTlcHc6fXYS579smB5RHlTh.jpg,34.0634100,132.9573100
https://meqqe.jp/spots/10357074,AED @みなと交流センター（はーばりー） １階 監視員室（海側）入って右側,愛媛県今治市片原町１丁目１００－３,,,"https://local.google.co.jp/maps?q=34.0694300,133.0053800",https://images.meqqe.jp/post_images/NEKIwx1XPK1QHnSozBQZ7at8Sx2gzcPIqQRe3Bi5.jpg,34.0694300,133.0053800
https://meqqe.jp/spots/10357112,AED @今治市立乃万小学校 体育館玄関内,愛媛県今治市延喜甲349,,,"https://local.google.co.jp/maps?q=34.0640100,132.9572800",https://images.meqqe.jp/post_images/E7R6RnR6uTOFpFTAp2la5AwBpVsJG6Z58ICrt9g9.jpg,34.0640100,132.9572800
https://meqqe.jp/spots/10357111,AED @今治市立日高小学校 体育館入口（屋外）,愛媛県今治市別名446-2,,,"https://local.google.co.jp/maps?q=34.0457600,132.9768800",https://images.meqqe.jp/post_images/GEsePXes9lP4OuDWtUug2BOqpxGtf3jQDWva4uTL.jpg,34.0457600,132.9768800
https://meqqe.jp/spots/10357110,AED @今治市立日高小学校 玄関内ロビー,愛媛県今治市別名446-2,,,"https://local.google.co.jp/maps?q=34.0457900,132.9760100",https://images.meqqe.jp/post_images/ru5kMDZv3GG7qEgVxVKzdiLZfCf75de0rCOoS5Sx.jpg,34.0457900,132.9760100
https://meqqe.jp/spots/10357109,AED @今治市立清水小学校 体育館入り口屋外,愛媛県今治市五十嵐甲１３－３,,,"https://local.google.co.jp/maps?q=34.0325800,132.9838500",https://images.meqqe.jp/post_images/ONmHqQPG5KB4pEMtUgJQMFZaBtz38r5ukpdG9Bxq.jpg,34.0325800,132.9838500
https://meqqe.jp/spots/10357108,AED @今治市立清水小学校 玄関横廊下,愛媛県今治市五十嵐甲１３－３,,,"https://local.google.co.jp/maps?q=34.0329800,132.9844800",https://images.meqqe.jp/post_images/fMNjQnuR0BuhobSvUi4mJdxtYkThBCmjlzFRXAFO.jpg,34.0329800,132.9844800
https://meqqe.jp/spots/10357107,AED @今治市立富田小学校 体育館入口（屋外）,愛媛県今治市上徳甲３９４－４,,,"https://local.google.co.jp/maps?q=34.0344100,133.0135400",https://images.meqqe.jp/post_images/6GjYw0T57TaJOjBc6UVFe3TtJrXQImv5TiBC2ZDK.jpg,34.0344100,133.0135400
https://meqqe.jp/spots/10357106,AED @今治市立富田小学校 保健室前廊下,愛媛県今治市上徳甲３９４－４,,,"https://local.google.co.jp/maps?q=34.0336300,133.0137800",https://images.meqqe.jp/post_images/4tlhXqVH18oOlkPACdgWbatWplIz1xnbrHYj26XD.jpg,34.0336300,133.0137800
https://meqqe.jp/spots/10357105,AED @今治市立富田小学校 職員室前廊下,愛媛県今治市上徳甲３９４－４,,,"https://local.google.co.jp/maps?q=34.0341100,133.0138600",https://images.meqqe.jp/post_images/nDAM7LQUvdHBo6JoGNxMSyCdDw2rssJOjelu2rkH.jpg,34.0341100,133.0138600
https://meqqe.jp/spots/10357104,AED @今治市立国分小学校 玄関口屋外,愛媛県今治市古国分２丁目７－１,,,"https://local.google.co.jp/maps?q=34.0327200,133.0311800",https://images.meqqe.jp/post_images/iI2CUdYlNGag6uZgLvXTvlgNUhRhO80e2nnv0iiY.jpg,34.0327200,133.0311800
https://meqqe.jp/spots/10357103,AED @今治市立国分小学校 体育館ロビー内,愛媛県今治市古国分２丁目７－１,,,"https://local.google.co.jp/maps?q=34.0332100,133.0313200",https://images.meqqe.jp/post_images/gmnaMEmuLGYs9hA6N38UmuUdviXDNqA686asjX6n.jpg,34.0332100,133.0313200
https://meqqe.jp/spots/10357102,AED @今治市立桜井小学校 体育館北側壁面（屋外）,愛媛県今治市郷桜井１丁目８－２６,,,"https://local.google.co.jp/maps?q=34.0161500,133.0340600",https://images.meqqe.jp/post_images/31SWZbv9Vb9EZlfG47GpFa45B4Qgtsrkrhbw3wwF.jpg,34.0161500,133.0340600
https://meqqe.jp/spots/10357101,AED @今治市立桜井小学校 南校舎1階　保健室前廊下,愛媛県今治市郷桜井１丁目８－２６,,,"https://local.google.co.jp/maps?q=34.0170900,133.0342200",https://images.meqqe.jp/post_images/ad3pjhR35cEjL3CxmB2fhMM9OQ7rP9VTwy4VSRIl.jpg,34.0170900,133.0342200
https://meqqe.jp/spots/10357100,AED @今治市立鳥生小学校 プール出口（屋外）,愛媛県今治市南高下町３丁目３－７１,,,"https://local.google.co.jp/maps?q=34.0490200,133.0132100",https://images.meqqe.jp/post_images/UTPntoHAzxMiLxguKM9UL0bCgvRehOCL7ZyhYl7O.jpg,34.0490200,133.0132100
https://meqqe.jp/spots/10357099,AED @今治市立鳥生小学校 体育館ロビー,愛媛県今治市南高下町３丁目３－７１,,,"https://local.google.co.jp/maps?q=34.0487900,133.0127400",https://images.meqqe.jp/post_images/IJeOz2oSXhCnd6UGnrIHbhDtYXKXaO5qcSTeLC4A.jpg,34.0487900,133.0127400
https://meqqe.jp/spots/10357098,AED @今治市立立花小学校 児童玄関運動場側（屋外）,愛媛県今治市立花町４丁目３－４５,,,"https://local.google.co.jp/maps?q=34.0478100,133.0009600",https://images.meqqe.jp/post_images/JBQRSjusTBFHTC6BmCNKkV5eNew1teYCx8O2c5dH.jpg,34.0478100,133.0009600
https://meqqe.jp/spots/10357097,AED @今治市立立花小学校 体育館玄関内,愛媛県今治市立花町４丁目３－４５,,,"https://local.google.co.jp/maps?q=34.0475500,133.0010100",https://images.meqqe.jp/post_images/SlisIvUIPFLZd5mTG6uBfgOMuQJQytGC5excbjUh.jpg,34.0475500,133.0010100
https://meqqe.jp/spots/10357096,AED @今治市立近見小学校 西校舎１階（屋外）,愛媛県今治市近見町１丁目５－１,,,"https://local.google.co.jp/maps?q=34.0896300,132.9859500",https://images.meqqe.jp/post_images/wt1VlNaZslNcpAcPj0VPaWY3y7z0aZw0mVZiMIeC.jpg,34.0896300,132.9859500
https://meqqe.jp/spots/10357095,AED @今治市立近見小学校 体育館玄関内,愛媛県今治市近見町１丁目５－１,,,"https://local.google.co.jp/maps?q=34.0902100,132.9859100",https://images.meqqe.jp/post_images/3nAItye0OTmvWjnrAENgF0ajZd6usUSVtB3SLTLw.jpg,34.0902100,132.9859100
https://meqqe.jp/spots/10357094,AED @今治市立常盤小学校 運動場・中庭通路（屋外）,愛媛県今治市中日吉町２丁目６－５５,,,"https://local.google.co.jp/maps?q=34.0597300,132.9892300",https://images.meqqe.jp/post_images/PsOxtnLFG7YTb5HG0LkxfIEIxubfNBKRSfpnfvxP.jpg,34.0597300,132.9892300
https://meqqe.jp/spots/10357093,AED @今治市立常盤小学校 体育館玄関内,愛媛県今治市中日吉町２丁目６－５５,,,"https://local.google.co.jp/maps?q=34.0599900,132.9898100",https://images.meqqe.jp/post_images/AEJUiITaYDDA1kvIyQYyQ3o6M1d0TQTZJpK8coy2.jpg,34.0599900,132.9898100
https://meqqe.jp/spots/10357132,AED @今治市立宮窪小学校 1階正面玄関ロビー内,愛媛県今治市宮窪町宮窪４７６５,,,"https://local.google.co.jp/maps?q=34.1722500,133.0727800",https://images.meqqe.jp/post_images/biOmIkJjnDY1mZL7vn0HeVSITG12gb7CCznRgopo.jpg,34.1722500,133.0727800
https://meqqe.jp/spots/10357131,AED @今治市立吉海小学校 ２階職員室前（ベランダ）,愛媛県今治市吉海町八幡１５７,,,"https://local.google.co.jp/maps?q=34.1449300,133.0409200",https://images.meqqe.jp/post_images/3NERBPcl9vn0xolbOIQlFzofHbA1wQDlgKoVPkke.jpg,34.1449300,133.0409200
https://meqqe.jp/spots/10357130,AED @今治市立吉海小学校 屋内運動場玄関,愛媛県今治市吉海町八幡１５７,,,"https://local.google.co.jp/maps?q=34.1445600,133.0414200",https://images.meqqe.jp/post_images/INbp3vI9EdQKCNvoj35Jv3pAln4RUUCyu6DEONDX.jpg,34.1445600,133.0414200
https://meqqe.jp/spots/10357129,AED @今治市立菊間小学校 職員室屋外階段出口横,愛媛県今治市菊間町長坂２００１,,,"https://local.google.co.jp/maps?q=34.0327500,132.8460500",https://images.meqqe.jp/post_images/6LBsvuufNKRsVeNiukhWDSdgaox3NHcW4NZfSNd2.jpg,34.0327500,132.8460500
https://meqqe.jp/spots/10357128,AED @今治市立菊間小学校 体育館入口,愛媛県今治市菊間町長坂２００１,,,"https://local.google.co.jp/maps?q=34.0328800,132.8454400",https://images.meqqe.jp/post_images/UMgK4ucXo62PrEb2eR43c3B2tUNvy73XqnewgE6U.jpg,34.0328800,132.8454400
https://meqqe.jp/spots/10357127,AED @今治市立亀岡小学校 体育館プール側壁面,愛媛県今治市菊間町種５２,,,"https://local.google.co.jp/maps?q=34.0551700,132.8735200",https://images.meqqe.jp/post_images/xLyHr7Alp584CbQCSyeDz6SAQGVtQicQMMa8NR8N.jpg,34.0551700,132.8735200
https://meqqe.jp/spots/10357126,AED @今治市立亀岡小学校 玄関ロビー,愛媛県今治市菊間町種５２,,,"https://local.google.co.jp/maps?q=34.0550100,132.8729100",https://images.meqqe.jp/post_images/qAjQWYV2ozk9c9NPPGIKuZ39IMAXY1HYOwlJb2p0.jpg,34.0550100,132.8729100
https://meqqe.jp/spots/10357125,AED @今治市立大西小学校 体育館運動場側入口（屋外）,愛媛県今治市大西町大井浜１０３,,,"https://local.google.co.jp/maps?q=34.0632700,132.9226700",https://images.meqqe.jp/post_images/7oTVMiFMyAIDmxZwW1dLA50z8aPSVoHDtwziLkLS.jpg,34.0632700,132.9226700
https://meqqe.jp/spots/10357124,AED @今治市立大西小学校 玄関ロビー,愛媛県今治市大西町大井浜１０３,,,"https://local.google.co.jp/maps?q=34.0638100,132.9228600",https://images.meqqe.jp/post_images/yEW4ofiLMvjbtuD1TnaexNDtvcMjY5ie2HvB8GWN.jpg,34.0638100,132.9228600
https://meqqe.jp/spots/10357123,AED @今治市立波方小学校 体育館入口（屋外）,愛媛県今治市波方町養老８０３－１,,,"https://local.google.co.jp/maps?q=34.1050200,132.9461700",https://images.meqqe.jp/post_images/rq4yuoTe5q31frMGrIJMXAkXmvUFHl3VZBVD19Ee.jpg,34.1050200,132.9461700
https://meqqe.jp/spots/10357122,AED @今治市立波方小学校 南校舎1階運動場出入口,愛媛県今治市波方町養老８０３－１,,,"https://local.google.co.jp/maps?q=34.1048400,132.9459100",https://images.meqqe.jp/post_images/RrjW6JhIcTCnPY1bT6nDOaPvgu49RfGvgLkTR5ax.jpg,34.1048400,132.9459100
https://meqqe.jp/spots/10357121,AED @今治市立九和小学校 プール入口階段脇（屋外）,愛媛県今治市玉川町摺木７１－１,,,"https://local.google.co.jp/maps?q=34.0206500,132.9387100",https://images.meqqe.jp/post_images/z2EYPWybkQ14LPtw5pwd5rhZdxq74xLWGkRF4gdI.jpg,34.0206500,132.9387100
https://meqqe.jp/spots/10357120,AED @今治市立九和小学校 玄関口,愛媛県今治市玉川町摺木７１－１,,,"https://local.google.co.jp/maps?q=34.0210200,132.9386400",https://images.meqqe.jp/post_images/SMngFhe0hfJRIsP1YbOIcgbKXPR8EArN8lQO6Zuy.jpg,34.0210200,132.9386400
https://meqqe.jp/spots/10357119,AED @今治市立鴨部小学校 体育館入口（屋外）,愛媛県今治市玉川町中村５７４,,,"https://local.google.co.jp/maps?q=34.0223500,132.9567200",https://images.meqqe.jp/post_images/dIUieF4lWQLrxBtqtCxSMBl5kdk79shjuLu3o0D9.jpg,34.0223500,132.9567200
https://meqqe.jp/spots/10357118,AED @今治市立鴨部小学校 １階正面玄関内,愛媛県今治市玉川町中村５７４,,,"https://local.google.co.jp/maps?q=34.0220500,132.9559300",https://images.meqqe.jp/post_images/d8ykByVhPMXvTCl2gArGu5NBD3VfBjQ3ZKRTcRCe.jpg,34.0220500,132.9559300
https://meqqe.jp/spots/10357117,AED @今治市立朝倉小学校 体育館入口（屋外）,愛媛県今治市朝倉北甲２８１,,,"https://local.google.co.jp/maps?q=33.9983200,133.0161900",https://images.meqqe.jp/post_images/k8XWs7RWzIbTIvaFpLk27akO4m0ndEzdkY5lz5Zk.jpg,33.9983200,133.0161900
https://meqqe.jp/spots/10357116,AED @今治市立朝倉小学校 職員玄関口,愛媛県今治市朝倉北甲２８１,,,"https://local.google.co.jp/maps?q=33.9984800,133.0165700",https://images.meqqe.jp/post_images/aZKKSgDFLmtnEodo3qqogyLZSNuVE0EPs5aubk8k.jpg,33.9984800,133.0165700
https://meqqe.jp/spots/10357115,AED @今治市立波止浜小学校 運動場側玄関（屋外）,愛媛県今治市地堀１丁目３－４0,,,"https://local.google.co.jp/maps?q=34.1059100,132.9651100",https://images.meqqe.jp/post_images/9TyitaPVMeSJaQRSAbbQ9MGln1LXVCXliDhE09tR.jpg,34.1059100,132.9651100
https://meqqe.jp/spots/10357114,AED @今治市立波止浜小学校 体育館玄関内,愛媛県今治市地堀１丁目３－４０,,,"https://local.google.co.jp/maps?q=34.1059400,132.9656800",https://images.meqqe.jp/post_images/OVXKV7MNNVNCBzHppGHfi1b7AO63tA1cfEgwzdY2.jpg,34.1059400,132.9656800
https://meqqe.jp/spots/10357113,AED @今治市立乃万小学校 保健室運動場出口横,愛媛県今治市延喜甲349,,,"https://local.google.co.jp/maps?q=34.0644100,132.9572800",https://images.meqqe.jp/post_images/g4pmvYm4ddh9PybX3HoBus2oMPpv7P1qM0X2xrXX.jpg,34.0644100,132.9572800
https://meqqe.jp/spots/10357152,AED @今治市立南中学校 体育館壁面（屋外）,愛媛県今治市松木３４９－２,,,"https://local.google.co.jp/maps?q=34.0315400,133.0011700",https://images.meqqe.jp/post_images/p1lG5S5Az7UBRBjKg8hAN0a7HphxPZeUaFu8yziv.jpg,34.0315400,133.0011700
https://meqqe.jp/spots/10357151,AED @今治市立南中学校 1階職員室前廊下,愛媛県今治市松木３４９－１,,,"https://local.google.co.jp/maps?q=34.0308800,133.0006100",https://images.meqqe.jp/post_images/PXC7cgiAtLzQiOpiC6etCdvQLCAu5PKVwbcf4pPg.jpg,34.0308800,133.0006100
https://meqqe.jp/spots/10357150,AED @今治市立桜井中学校 玄関口（屋外）,愛媛県今治市郷桜井１丁目８－８,,,"https://local.google.co.jp/maps?q=34.0164100,133.0340400",https://images.meqqe.jp/post_images/2mXx0hZeOaYHnNMRfgCGljOWSNjPStbv0aNY47VF.jpg,34.0164100,133.0340400
https://meqqe.jp/spots/10357149,AED @今治市立桜井中学校 体育館入口,愛媛県今治市郷桜井１丁目８－８,,,"https://local.google.co.jp/maps?q=34.0169400,133.0334200",https://images.meqqe.jp/post_images/dqtxsPi2aNKP97A7ARiqM4XD6QjrkDToQByzu0kd.jpg,34.0169400,133.0334200
https://meqqe.jp/spots/10357148,AED @今治市立立花中学校 体育教官室入口横（屋外）,愛媛県今治市立花町２丁目８－７,,,"https://local.google.co.jp/maps?q=34.0504100,132.9979200",https://images.meqqe.jp/post_images/HOYjZBEXOqQ3Fko00hKPXUJ0HsJ708fFekJkVQlD.jpg,34.0504100,132.9979200
https://meqqe.jp/spots/10357147,AED @今治市立立花中学校 本館１階職員室前廊下,愛媛県今治市立花町２丁目８－７,,,"https://local.google.co.jp/maps?q=34.0496300,132.9971800",https://images.meqqe.jp/post_images/mJz52UpDOBZNIVSiZ3jGFBCTtLy4qhX6gFgDVxAN.jpg,34.0496300,132.9971800
https://meqqe.jp/spots/10357146,AED @今治市立近見中学校 体育館入口(屋外),愛媛県今治市近見町４丁目２－５７,,,"https://local.google.co.jp/maps?q=34.0864600,132.9808300",https://images.meqqe.jp/post_images/oKPDr2WFfoBNlLz7F4cysrSvgigvObnBdx0U3OpA.jpg,34.0864600,132.9808300
https://meqqe.jp/spots/10357145,AED @今治市立近見中学校 生徒玄関(屋外),愛媛県今治市近見町４丁目２－５７,,,"https://local.google.co.jp/maps?q=34.0864300,132.9814800",https://images.meqqe.jp/post_images/h1gqgb0g8zOpScFeWL60ezkbmkrSGVKw8sKkPlv2.jpg,34.0864300,132.9814800
https://meqqe.jp/spots/10357144,AED @今治市立日吉中学校 保健室前運動場側（屋外）,愛媛県今治市中日吉町１丁目３－７０,,,"https://local.google.co.jp/maps?q=34.0614400,132.9926900",https://images.meqqe.jp/post_images/roCt7Ltp8VuBeRXQkOUqPUyvyViqJFizEqCzyMYT.jpg,34.0614400,132.9926900
https://meqqe.jp/spots/10357143,AED @今治市立日吉中学校 玄関ロビー,愛媛県今治市中日吉町１丁目３－７０,,,"https://local.google.co.jp/maps?q=34.0615700,132.9925200",https://images.meqqe.jp/post_images/p8EKx0TzMzISi4pC3S8ZvZ2de4DT1n2swd6IxMTZ.jpg,34.0615700,132.9925200
https://meqqe.jp/spots/10357142,AED @今治市立日吉中学校 屋内運動場玄関内,愛媛県今治市中日吉町１丁目３－７０,,,"https://local.google.co.jp/maps?q=34.0618400,132.9926100",https://images.meqqe.jp/post_images/lbSU7EfnS00Lg3qoTt4dq4DAIi6nZzOBlQ5QDSZB.jpg,34.0618400,132.9926100
https://meqqe.jp/spots/10357141,AED @今治市立岡村小学校 １階正面玄関(屋外),愛媛県今治市関前岡村４１５,,,"https://local.google.co.jp/maps?q=34.1880000,132.8835300",https://images.meqqe.jp/post_images/YCDCBVHSYzQgTuBYEQ8LHtSMQjcu6KnZ6HwMIGj5.jpg,34.1880000,132.8835300
https://meqqe.jp/spots/10357140,AED @今治市立岡村小学校 １階正面玄関ロビー,愛媛県今治市関前岡村４１５,,,"https://local.google.co.jp/maps?q=34.1880400,132.8833500",https://images.meqqe.jp/post_images/7zX0cQ5C4iZ3t5IWklbWGD7xP25dxYtSzKrENrgM.jpg,34.1880400,132.8833500
https://meqqe.jp/spots/10357139,AED @今治市立大三島小学校 保健室前廊下,愛媛県今治市大三島町宮浦５１４５,,,"https://local.google.co.jp/maps?q=34.2466200,133.0005600",https://images.meqqe.jp/post_images/jqxJlq7DDDLL3W6rxJhwIs268SIVu3sNWDCSpi1m.jpg,34.2466200,133.0005600
https://meqqe.jp/spots/10357138,AED @今治市立大三島小学校 体育館玄関（屋外）,愛媛県今治市大三島町宮浦５１４５,,,"https://local.google.co.jp/maps?q=34.2470400,133.0010200",https://images.meqqe.jp/post_images/dAn3dLp3ra7eHF2LQv2mvmPfL7VavV7j6ifgI8zG.jpg,34.2470400,133.0010200
https://meqqe.jp/spots/10357137,AED @今治市立上浦小学校 体育館正面玄関,愛媛県今治市上浦町井口４４９７,,,"https://local.google.co.jp/maps?q=34.2632100,133.0318300",https://images.meqqe.jp/post_images/Qhmp9jkIB7dqQRxs3f7pgBmGaRNVXUfGTqW9cO5e.jpg,34.2632100,133.0318300
https://meqqe.jp/spots/10357136,AED @今治市立上浦小学校 １階児童玄関（屋外）,愛媛県今治市上浦町井口４４９７,,,"https://local.google.co.jp/maps?q=34.2630400,133.0316600",https://images.meqqe.jp/post_images/YuWLTQVXigzwXsHs1uNCC0kBK0OejGVve6QoxsZC.jpg,34.2630400,133.0316600
https://meqqe.jp/spots/10357135,AED @今治市立伯方小学校 ２階音楽室前,愛媛県今治市伯方町木浦３５９９－２,,,"https://local.google.co.jp/maps?q=34.2052700,133.1111600",https://images.meqqe.jp/post_images/csCPDFuSarBMfyCiO1QXxN3sbr9n0rhljDjCmKxR.jpg,34.2052700,133.1111600
https://meqqe.jp/spots/10357134,AED @今治市立伯方小学校 １階正面玄関（屋外）,愛媛県今治市伯方町木浦３５９９－２,,,"https://local.google.co.jp/maps?q=34.2051200,133.1115500",https://images.meqqe.jp/post_images/6wj6VO6ns1PjBqRpcR2JNfgE5uA1gx1Kd3MBtZOx.jpg,34.2051200,133.1115500
https://meqqe.jp/spots/10357133,AED @今治市立宮窪小学校 体育館入口（屋外）,愛媛県今治市宮窪町宮窪４７６５,,,"https://local.google.co.jp/maps?q=34.1725100,133.0724400",https://images.meqqe.jp/post_images/WrQMvrDfgYZSFW5TiLUELlmlP9xRj3oVcq2ke08Y.jpg,34.1725100,133.0724400
https://meqqe.jp/spots/10357173,AED @今治市立近見中学校 職員室前廊下,愛媛県今治市近見町４丁目２－５７,,,"https://local.google.co.jp/maps?q=34.0862100,132.9816300",https://images.meqqe.jp/post_images/3n2o6mqf3J74snTbcq6DEtJAEcJEU8h2sbKqLZVP.jpg,34.0862100,132.9816300
https://meqqe.jp/spots/10357172,AED @今治市クリーンセンター（バリクリーン） 管理棟２F大研修室の左側の靴箱,愛媛県今治市町谷甲３９４番地,,,"https://local.google.co.jp/maps?q=34.0214400,132.9989200",https://images.meqqe.jp/post_images/HWDJabEtaeKK4QXSHy4r83dxP1oO95cSK5KOOhcm.jpg,34.0214400,132.9989200
https://meqqe.jp/spots/10357171,AED @今治市立大三島中学校 生徒玄関壁面,愛媛県今治市上浦町井口５６１０,,,"https://local.google.co.jp/maps?q=34.2646600,133.0372600",https://images.meqqe.jp/post_images/yOhW08JTDQBuspwKEScpPj0EbibcxrdSYwwu6kzR.jpg,34.2646600,133.0372600
https://meqqe.jp/spots/10357170,AED @今治市立大三島中学校 体育館渡り廊下側入口（屋外）,愛媛県今治市上浦町井口５６１０,,,"https://local.google.co.jp/maps?q=34.2642600,133.0371600",https://images.meqqe.jp/post_images/RKfE3xsU5gvlfjlr1bI5bLsWoMF5oLSVEtv2mN7t.jpg,34.2642600,133.0371600
https://meqqe.jp/spots/10357169,AED @今治市立伯方中学校 体育館渡り廊下前壁面（屋外）,愛媛県今治市伯方町木浦４１３４－１,,,"https://local.google.co.jp/maps?q=34.2119100,133.1073300",https://images.meqqe.jp/post_images/dzzvvlunM1LvF5UY0r3NJ6mU4nyK1cJaKadwpTlw.jpg,34.2119100,133.1073300
https://meqqe.jp/spots/10357168,AED @今治市立伯方中学校 １階事務室前,愛媛県今治市伯方町木浦４１３４－１,,,"https://local.google.co.jp/maps?q=34.2123100,133.1072200",https://images.meqqe.jp/post_images/AuhGgSBSuvlyB3aNDDJNmKMM9GRDAw5ORBMNbVm5.jpg,34.2123100,133.1072200
https://meqqe.jp/spots/10357167,AED @今治市立大島中学校 保健室前廊下,愛媛県今治市吉海町幸新田２５０,,,"https://local.google.co.jp/maps?q=34.1435800,133.0409200",https://images.meqqe.jp/post_images/1i30jBeEmCKqRaTo9iBnxeOocTOxIKUFbPsBy8vK.jpg,34.1435800,133.0409200
https://meqqe.jp/spots/10357166,AED @今治市立大島中学校 体育館玄関横入口,愛媛県今治市吉海町幸新田２５０,,,"https://local.google.co.jp/maps?q=34.1430700,133.0409400",https://images.meqqe.jp/post_images/72cUEYeoUinCCexE5dTYvbzUbGc2eGjBgkI9MNtx.jpg,34.1430700,133.0409400
https://meqqe.jp/spots/10357165,AED @今治市立菊間中学校 ２階渡り廊下資料室前,愛媛県今治市菊間町浜２６２８－１,,,"https://local.google.co.jp/maps?q=34.0318100,132.8530100",https://images.meqqe.jp/post_images/rX5TOqmvrO3Xz1GeW3oHh46AKlNv9RruwjNAmg0N.jpg,34.0318100,132.8530100
https://meqqe.jp/spots/10357164,AED @今治市立菊間中学校 保健室横,愛媛県今治市菊間町浜２６２８－１,,,"https://local.google.co.jp/maps?q=34.0317900,132.8530700",https://images.meqqe.jp/post_images/CFs2ix3OcoWJiYmRNwX0UpEKKLxTiBPJB2uK6nWs.jpg,34.0317900,132.8530700
https://meqqe.jp/spots/10357163,AED @今治市立大西中学校 体育館入口（屋外）,愛媛県今治市大西町九王２２８０－１,,,"https://local.google.co.jp/maps?q=34.0653800,132.9262200",https://images.meqqe.jp/post_images/t7hlc0iYXpFfoJACSLWMXooaTBpUChGjgsyWUFoz.jpg,34.0653800,132.9262200
https://meqqe.jp/spots/10357162,AED @今治市立大西中学校 職員室前廊下,愛媛県今治市大西町九王２２８０－１,,,"https://local.google.co.jp/maps?q=34.0658600,132.9264700",https://images.meqqe.jp/post_images/UJUzC0HbNfEON0pxDn84arwdfxEcHAzzkZK9dwwt.jpg,34.0658600,132.9264700
https://meqqe.jp/spots/10357161,AED @今治市立玉川中学校 １階体育館入口（屋外）,愛媛県今治市玉川町高野２１,,,"https://local.google.co.jp/maps?q=34.0184900,132.9439200",https://images.meqqe.jp/post_images/Un9syy0wyf5yQobsItTP0BpKozwJuIvEYJbk4RH9.jpg,34.0184900,132.9439200
https://meqqe.jp/spots/10357160,AED @今治市立玉川中学校 校舎１階玄関ロビー,愛媛県今治市玉川町高野２１,,,"https://local.google.co.jp/maps?q=34.0189100,132.9437100",https://images.meqqe.jp/post_images/IqBJkPQCNjPwORwUlaEeI9QFNKTCkCHIjiwQy3fv.jpg,34.0189100,132.9437100
https://meqqe.jp/spots/10357159,AED @今治市立朝倉中学校 体育館入口（屋外）,愛媛県今治市朝倉北２７３,,,"https://local.google.co.jp/maps?q=33.9979830,133.0166500",https://images.meqqe.jp/post_images/TqH7vMCZILfOgGjci7ryXt7MRuH6oy7ZBR588H7T.jpg,33.9979830,133.0166500
https://meqqe.jp/spots/10357158,AED @今治市立朝倉中学校 玄関ロビー,愛媛県今治市朝倉北２７３,,,"https://local.google.co.jp/maps?q=33.9976800,133.0174500",https://images.meqqe.jp/post_images/rurmvpJKntC6tCaBfWSIDnvh4V6J4pAVrTYvH2pg.jpg,33.9976800,133.0174500
https://meqqe.jp/spots/10357157,AED @今治市立北郷中学校 体育館・武道場入口壁面（屋外）,愛媛県今治市中堀４丁目１－１,,,"https://local.google.co.jp/maps?q=34.1009200,132.9578800",https://images.meqqe.jp/post_images/xxkSDrsn8Vn1ECQ0G4EJgIcorrxqjDR3FBNEffQL.jpg,34.1009200,132.9578800
https://meqqe.jp/spots/10357156,AED @今治市立北郷中学校 本館１階 保健室前廊下,愛媛県今治市中堀４丁目１－１,,,"https://local.google.co.jp/maps?q=34.1010900,132.9582700",https://images.meqqe.jp/post_images/cNh8D6ahyrM7JWITdWVIASSQgYGsDFy22GSNn796.jpg,34.1010900,132.9582700
https://meqqe.jp/spots/10357155,AED @今治市立西中学校 １、２年生入口横,愛媛県今治市山路５５４－３,,,"https://local.google.co.jp/maps?q=34.0574200,132.9762100",https://images.meqqe.jp/post_images/nwAyAR64UWww1QO8PWJLbTykBCoDDphxEhn1ya8P.jpg,34.0574200,132.9762100
https://meqqe.jp/spots/10357154,AED @今治市立西中学校 体育館入口内,愛媛県今治市山路５５４－３,,,"https://local.google.co.jp/maps?q=34.0580300,132.9771900",https://images.meqqe.jp/post_images/RTc6Myneh27MAZIXI8rFVpfGMkNmh5Ckupc0EsK5.jpg,34.0580300,132.9771900
https://meqqe.jp/spots/10357153,AED @今治市立西中学校 職員玄関前体育館（屋外）,愛媛県今治市山路５５４－３,,,"https://local.google.co.jp/maps?q=34.0579400,132.9763100",https://images.meqqe.jp/post_images/QNdSpfs6FBgHTJVVHPHN20tqWtOozTs5AoePtAd9.jpg,34.0579400,132.9763100
https://meqqe.jp/spots/10357186,AED@今治南高等学校,愛媛県今治市常盤町７丁目２−１７,,,"https://local.google.co.jp/maps?q=34.0560100,132.9892000",https://images.meqqe.jp/post_images/BCXwW2MUgq3ZQmQVYFoSsNxwJiFHYLwdenGi42Db.jpg,34.0560100,132.9892000
https://meqqe.jp/spots/10357185,AED@はしはまこがく認定こども園,愛媛県今治市地堀２丁目３−１２,,,"https://local.google.co.jp/maps?q=34.1046400,132.9638800",https://images.meqqe.jp/post_images/d1Q7bFX7QKDxhAyE7rpYzP1JqXLkYFToJL5z16Sa.jpg,34.1046400,132.9638800
https://meqqe.jp/spots/10357184,AED@アクティブライフ デイサービスハウス夢,愛媛県今治市阿方１８３−１,,,"https://local.google.co.jp/maps?q=34.0619600,132.9735300",https://images.meqqe.jp/post_images/Sj6EWlqQjwhqTqE7DIFk2PEQtQt1dJRb5RcuH7Kb.jpg,34.0619600,132.9735300
https://meqqe.jp/spots/10357183,AED @老人保健施設　燧園 ２階　観察室,愛媛県今治市末広町３丁目1-6,,,"https://local.google.co.jp/maps?q=34.0628600,133.0039000",https://images.meqqe.jp/post_images/ZgjoBha7ipENlHlZtfdb9rN1hj9PwGinHyDnH5mo.jpg,34.0628600,133.0039000
https://meqqe.jp/spots/10357182,AED @越智商工会 １階　ロビー,愛媛県今治市大西町宮脇甲1515-2,,,"https://local.google.co.jp/maps?q=34.0640800,132.9263200",https://images.meqqe.jp/post_images/DwIHrQH04SrBljECssqWxI2xz2f9zIg64BmZ9lyh.jpg,34.0640800,132.9263200
https://meqqe.jp/spots/10357181,AED @今治北高等学校 南西校舎２階職員室前,愛媛県今治市宮下町２丁目2-14,,,"https://local.google.co.jp/maps?q=34.0653500,132.9880000",https://images.meqqe.jp/post_images/jLsOpAEFJFu7XPNPVZA5j0RpixQncdQoLXjCRW5k.jpg,34.0653500,132.9880000
https://meqqe.jp/spots/10357180,AED @今治北高等学校 プール北東側　更衣室入口,愛媛県今治市宮下町２丁目2-14,,,"https://local.google.co.jp/maps?q=34.0661900,132.9880000",https://images.meqqe.jp/post_images/LRH8a2CVWXJ9ST0rDRl2KUoThv8E2UVFv3wuJ6cS.jpg,34.0661900,132.9880000
https://meqqe.jp/spots/10357179,AED @今治北高等学校 体育館西側　職員室横,愛媛県今治市宮下町２丁目2-14,,,"https://local.google.co.jp/maps?q=34.0654600,132.9890400",https://images.meqqe.jp/post_images/fYSQCsdxxKmE78KuM7h47kPasRoJ9ZH6T4H746w1.jpg,34.0654600,132.9890400
https://meqqe.jp/spots/10357178,AED @愛媛県繊維染色工業組合 １階　事務所内,愛媛県今治市蒼社町２丁目1-4,,,"https://local.google.co.jp/maps?q=34.0551300,132.9949600",https://images.meqqe.jp/post_images/yDDtM7ZLu9eozJ2R8sBXwzMn1A1NrSpTaCQlwizZ.jpg,34.0551300,132.9949600
https://meqqe.jp/spots/10357177,AED @西染工（（株） １階　事務所内,愛媛県今治市南大門町４丁目5-1,,,"https://local.google.co.jp/maps?q=34.0689500,132.9913300",https://images.meqqe.jp/post_images/9IFTQI62JTgxnhMuNqTf4qQUINS0LLgYNF1NrJ8c.jpg,34.0689500,132.9913300
https://meqqe.jp/spots/10357176,AED @みどり幼稚園 管理棟１階　職員室,愛媛県今治市五十嵐甲60,,,"https://local.google.co.jp/maps?q=34.0321700,132.9858400",https://images.meqqe.jp/post_images/2ahHsvV1ndzJUSRytNYegwb05oSx1UeL996tzBJh.jpg,34.0321700,132.9858400
https://meqqe.jp/spots/10357175,AED @ｻﾝﾗｲｽﾞ糸山 １階　受付前,愛媛県今治市砂場町２丁目8-1,,,"https://local.google.co.jp/maps?q=34.1102400,132.9774300",https://images.meqqe.jp/post_images/cX9jWGxJu1SG2ERI64kSfT3mUAayXKznpxAP7LQH.jpg,34.1102400,132.9774300
https://meqqe.jp/spots/10357174,AED @（株）しまなみ １階事務所ロビー,愛媛県今治市大浜町１丁目丙232-1,,,"https://local.google.co.jp/maps?q=34.0963900,132.9855800",https://images.meqqe.jp/post_images/7nRaA0O4EJzn9a5eznlnXwHhusrPWPaQ74KtjxLC.jpg,34.0963900,132.9855800
https://meqqe.jp/spots/10357552,AED @龍門保育園 １階　事務所,愛媛県今治市朝倉上甲803-4,,,"https://local.google.co.jp/maps?q=33.9773902,133.0066222",https://images.meqqe.jp/post_images/MKhty9McTTQABQ8e6gVlARn4ugmn7pskIcZeiEAS.jpg,33.9773902,133.0066222
https://meqqe.jp/spots/10357551,AED @アイエン工業株式会社 玄関（屋内）,愛媛県今治市波止浜赤崎6-113,,,"https://local.google.co.jp/maps?q=34.1043328,132.9740145",https://images.meqqe.jp/post_images/MBEK9DIgA0qLZl5JmOXkr98auB2QIHKsGxU0q6eH.jpg,34.1043328,132.9740145
https://meqqe.jp/spots/10357550,AED @今治市宮窪福止センター １階　事務所,愛媛県今治市宮窪町宮窪3544-2,,,"https://local.google.co.jp/maps?q=34.1617031,133.0719043",https://images.meqqe.jp/post_images/X9KjtlczdXLLtu1t4TNF26amvs0D9wg4BKLp58BM.jpg,34.1617031,133.0719043
https://meqqe.jp/spots/10357549,AED @今治市上浦福祉センター 玄関入って左奥,愛媛県今治市上浦町甘崎3878-1,,,"https://local.google.co.jp/maps?q=34.2357825,133.0522939",https://images.meqqe.jp/post_images/atSys8QP645f0f3lynFrPo7xG0ws1hSRpSoqxUNm.jpg,34.2357825,133.0522939
https://meqqe.jp/spots/10357547,AED @今治市社協デイサービスセンター大三島 玄関入って左壁,愛媛県今治市大三島町野々江2435-2,,,"https://local.google.co.jp/maps?q=34.2208849,132.9900917",https://images.meqqe.jp/post_images/NewkZOQxUnwlKzgeyOrtgtqX6Xs09tGQg8d9va1N.jpg,34.2208849,132.9900917
https://meqqe.jp/spots/10358321,AED @キスケパオ今治本店 1階　店舗カウンター,愛媛県今治市別宮町１丁目2-4,,,"https://local.google.co.jp/maps?q=34.0662814,132.9991336",https://images.meqqe.jp/post_images/L51I4uJpkaEbKbZTmnwLR2JfByAen9vKZdNp8U3z.jpg,34.0662814,132.9991336
https://meqqe.jp/spots/10358322,AED @キスケパオ鳥生店 1階　店舗カウンター,愛媛県今治市南鳥生町2丁目3-53,,,"https://local.google.co.jp/maps?q=34.0533921,133.0102505",https://images.meqqe.jp/post_images/EYp6mk91Yx8rnOcgm8DLgN44kg0yDHwPSY4KrIPu.jpg,34.0533921,133.0102505
https://meqqe.jp/spots/10358323,AED @キスケパオ中寺店 1階　店舗カウンター,愛媛県今治市中寺234-4,,,"https://local.google.co.jp/maps?q=34.0339802,132.9999266",https://images.meqqe.jp/post_images/PkLTpPEY125A6q5N93Imv2wsES5S7xbBrOpyP7xZ.jpg,34.0339802,132.9999266
https://meqqe.jp/spots/10358324,AED @キスケパオ小泉店 1階　店舗カウンター,愛媛県今治市小泉3丁目1-32,,,"https://local.google.co.jp/maps?q=34.0500862,132.9812043",https://images.meqqe.jp/post_images/Ik0ynGRqzkgvLXM1rlOFzDR3XcVtm80aVx4fECD5.jpg,34.0500862,132.9812043
https://meqqe.jp/spots/10358325,AED @キスケパオ小泉店２ 1階　店舗カウンター,愛媛県今治市小泉3丁目1-32,,,"https://local.google.co.jp/maps?q=34.0501940,132.9811037",https://images.meqqe.jp/post_images/1NU1MJbIz8kuNVKOoVlrtFtwbG2lJhJR8K7Qrf0y.jpg,34.0501940,132.9811037
https://meqqe.jp/spots/10358326,AED @しまなみ温泉　喜助の湯 受付カウンター前,愛媛県今治市中日吉町1丁目2-30,,,"https://local.google.co.jp/maps?q=34.0628280,132.9923499",https://images.meqqe.jp/post_images/GZDxxcFc6nqyev3XtkKbDofNje9SRZerrLUQu11e.jpg,34.0628280,132.9923499
https://meqqe.jp/spots/10358494,AED @ＪＡおちいまばり　デイサービスセンター元気 事務所内,愛媛県今治市鐘場町1丁目2-9,,,"https://local.google.co.jp/maps?q=34.0844337,132.9903374",https://images.meqqe.jp/post_images/YfeFygFhJ2B2ruXfXODAkGouutv7P7whmdnRilEH.jpg,34.0844337,132.9903374
https://meqqe.jp/spots/10358493,AED @ＪＡおちいまばり　デイサービスセンター元気玉川 事務所内,愛媛県今治市玉川町中村甲496-1,,,"https://local.google.co.jp/maps?q=34.0232049,132.9573368",https://images.meqqe.jp/post_images/OJQhrbPDeQp7mftuDQ2VA6i3IthxqL7dheSBp6Is.jpg,34.0232049,132.9573368
https://meqqe.jp/spots/10358492,AED @ＪＡおちいまばり　デイサービスセンター元気桜井 店舗内事務所,愛媛県今治市桜井4丁目13-7,,,"https://local.google.co.jp/maps?q=34.0198240,133.0383641",https://images.meqqe.jp/post_images/eRMFFPTZuR1jWXgMfyycWFsR98Dn32c0nZhx6dsu.jpg,34.0198240,133.0383641
https://meqqe.jp/spots/10358491,AED @ＪＡおちいまばり　デイサービスセンター元気伯方 事務所玄関,愛媛県今治市伯方町叶浦甲1666-4,,,"https://local.google.co.jp/maps?q=34.2070963,133.0738045",https://images.meqqe.jp/post_images/j4zZ6i2qZL9OJloUB4d6mCsZOfcy3fFEXrqSgjWf.jpg,34.2070963,133.0738045
https://meqqe.jp/spots/10358490,AED @ＪＡおちいまばり　小規模多機能　元気まんてん 事務所内,愛媛県今治市別名434,,,"https://local.google.co.jp/maps?q=34.0454583,132.9777911",https://images.meqqe.jp/post_images/2og4sb6sOYi3QPPIPD2RLMGb34X14iy4bOWE8kv6.jpg,34.0454583,132.9777911
https://meqqe.jp/spots/10358489,AED @ＪＡおちいまばり　乃万支店 ATMブース内,愛媛県今治市阿方甲246-1,,,"https://local.google.co.jp/maps?q=34.0627867,132.9667727",https://images.meqqe.jp/post_images/ZNFyZKA0KeQXrGEpOlqUt8HCfL1m0elTS0mJkzJ1.jpg,34.0627867,132.9667727
https://meqqe.jp/spots/10358488,AED @ＪＡおちいまばり　本店別館 玄関前（屋外）,愛媛県今治市北宝来町1丁目1-5,,,"https://local.google.co.jp/maps?q=34.0639283,132.9952940",https://images.meqqe.jp/post_images/jC5R8ZXobWOVxcggtOR0oLcucOBW7qDuZhPiOdhQ.jpg,34.0639283,132.9952940
https://meqqe.jp/spots/10358487,AED @デイサービス　たちばな 玄関内,愛媛県今治市北高下町3丁目3-18,,,"https://local.google.co.jp/maps?q=34.0499928,133.0112169",https://images.meqqe.jp/post_images/HiNKasQr8gwCIafJs3hOL7kRG1cjIq9JxQMt9t6F.jpg,34.0499928,133.0112169
https://meqqe.jp/spots/10358486,AED @小規模多機能型介護施設　たちばな １階　事務所内,愛媛県今治市八町東5丁目6-2,,,"https://local.google.co.jp/maps?q=34.0364981,133.0028351",https://images.meqqe.jp/post_images/1CodTPcNB9h0jCYG4nX6M7v3CNIagS9RQjIdtSSY.jpg,34.0364981,133.0028351
https://meqqe.jp/spots/10358485,AED @看護小規模多機能型介護施設　たちばな １階　事務所内,愛媛県今治市上徳甲571-2,,,"https://local.google.co.jp/maps?q=34.0426272,133.0120916",https://images.meqqe.jp/post_images/pTjZmF1K3TQHwsvQRKcRx2JmXi3mKIeeshGLKqqk.jpg,34.0426272,133.0120916
https://meqqe.jp/spots/10358484,AED @今治東中等教育学校 １階　保健室内,愛媛県今治市桜井2丁目9-1,,,"https://local.google.co.jp/maps?q=34.0237543,133.0353153",/images/illust/illust-spot.png,34.0237543,133.0353153
https://meqqe.jp/spots/10358497,AED @四国ガス（株）今治支店 事務所1階,愛媛県今治市共栄町5丁目1-3,,,"https://local.google.co.jp/maps?q=34.0716623,132.9971346",https://images.meqqe.jp/post_images/v1lxbNfI6ny007HmjeL8OhdR9Jfx4Thp1f8HnlRJ.jpg,34.0716623,132.9971346
https://meqqe.jp/spots/10358496,AED @四国ガス（株） ピポット今治内（1F屋内）,愛媛県今治市南大門町2丁目2-4,,,"https://local.google.co.jp/maps?q=34.0667577,132.9966215",https://images.meqqe.jp/post_images/MYZi8krYwMuI7vtVjvJMovOrpBwG0S9KD2QfEqet.jpg,34.0667577,132.9966215
https://meqqe.jp/spots/10358495,AED @今治市社協デイサービスセンター伯方 玄関入って右のフロア,愛媛県今治市伯方町木浦甲3930-1,,,"https://local.google.co.jp/maps?q=34.2120217,133.1130442",https://images.meqqe.jp/post_images/ArRhwxRiVru4QQwZJJ8hYEwpxRKxnCpB4IEV34j5.jpg,34.2120217,133.1130442
https://meqqe.jp/spots/10359771,AED @特別養護老人ホーム　シルバーハウス吹揚 １階　静養室,愛媛県今治市黄金町3丁目2-6,,,"https://local.google.co.jp/maps?q=34.0630374,133.0049870",https://images.meqqe.jp/post_images/biWxjE0ReRic2dLzyEC2F9t2qDs6ljwxssKbXoGd.jpg,34.0630374,133.0049870
https://meqqe.jp/spots/10359785,AED @なかよし学童くらぶ スタッフルーム,愛媛県今治市北宝来町2丁目2-12,,,"https://local.google.co.jp/maps?q=34.0654281,132.9950012",https://images.meqqe.jp/post_images/tAo4crZV192zwKoYtg83HAgCZR1fmEvUEorlgcO5.jpg,34.0654281,132.9950012
https://meqqe.jp/spots/10359784,AED @ふきあげワークス 作業室,愛媛県今治市恵美須町3丁目1-16,,,"https://local.google.co.jp/maps?q=34.0658335,133.0088251",https://images.meqqe.jp/post_images/Da4HUz1fAxE3ucZz19fRHuoLGSXszT1oUT2LlMNu.jpg,34.0658335,133.0088251
https://meqqe.jp/spots/10359783,AED @麦の穂 麦の穂2 階 相談室,愛媛県今治市衣干町2丁目144-3,,,"https://local.google.co.jp/maps?q=34.0490849,133.0162709",https://images.meqqe.jp/post_images/Lysllybdh9d0l0ayfJHM4lhZmx5cdaCDh0a9cRF3.jpg,34.0490849,133.0162709
https://meqqe.jp/spots/10359782,AED @ふらっぷ スタッフルーム,愛媛県今治市登畑甲345-1,,,"https://local.google.co.jp/maps?q=34.0174614,133.0106908",https://images.meqqe.jp/post_images/xPuniSZiutG2iUONKsolk2TtIdrrYa2XLRAzSAjD.jpg,34.0174614,133.0106908
https://meqqe.jp/spots/10359781,AED @今治ワークス 作業室内,愛媛県今治市宮ヶ崎甲166,,,"https://local.google.co.jp/maps?q=34.0168288,133.0098844",https://images.meqqe.jp/post_images/PWusZzjNGUmX1VclTQPe6KTz7kivXDlu6ZAks6gn.jpg,34.0168288,133.0098844
https://meqqe.jp/spots/10359780,AED @今治福祉園 医務室,愛媛県今治市宮ヶ崎甲170,,,"https://local.google.co.jp/maps?q=34.0162607,133.0099214",https://images.meqqe.jp/post_images/F0iPZG8QmukPFRBbcu4ldPgCmbCjDOLKvTOgJZEM.jpg,34.0162607,133.0099214
https://meqqe.jp/spots/10359779,AED @今治市子育て応援ステーション ばんび 事務所内,愛媛県今治市宮ヶ崎甲690-1,,,"https://local.google.co.jp/maps?q=34.0163983,133.0072784",https://images.meqqe.jp/post_images/Tp4U107OoLB3WXC5Q009EnA2lTqfvrh6aTlOFGKr.jpg,34.0163983,133.0072784
https://meqqe.jp/spots/10359778,AED @かのこ 玄関入り左側,愛媛県今治市宮ケ崎甲700-１,,,"https://local.google.co.jp/maps?q=34.0160960,133.0067012",https://images.meqqe.jp/post_images/uGZlgOI3JnVC2qyrrkF80rfvBgKQCI1NRtWbIu5H.jpg,34.0160960,133.0067012
https://meqqe.jp/spots/10359777,AED @来島ふれあいだんだんファーム だんだんファーム内作業建屋内,愛媛県今治市高市甲161 番3-1,,,"https://local.google.co.jp/maps?q=34.0305178,133.0059785",https://images.meqqe.jp/post_images/hFPwTv86jaJFAsmPCnR6ygP91rz1oV4hTM2pqJSE.jpg,34.0305178,133.0059785
https://meqqe.jp/spots/10359776,AED @ステップ 玉川工場,愛媛県今治市玉川町別所甲32-1,,,"https://local.google.co.jp/maps?q=34.0316745,132.9711805",https://images.meqqe.jp/post_images/y0CbhCPYUujvAtzcHlX2RIR9hpH1advtkc2TJAs2.jpg,34.0316745,132.9711805
https://meqqe.jp/spots/10359775,AED @らびっつ 職員室,愛媛県今治市高橋ふれあいの丘１-３,,,"https://local.google.co.jp/maps?q=34.0399177,132.9584509",https://images.meqqe.jp/post_images/sQkgJXTliYVWqp5sbxscT3ghaXoZM7nzJAizdTQq.jpg,34.0399177,132.9584509
https://meqqe.jp/spots/10359774,AED @ここすた 職員室,愛媛県今治市高橋ふれあいの丘１-３,,,"https://local.google.co.jp/maps?q=34.0399310,132.9583866",https://images.meqqe.jp/post_images/ucllD2gc6XkHNTFFxPhmTHkiNrkNec2xCvFnd4cG.jpg,34.0399310,132.9583866
https://meqqe.jp/spots/10359773,AED @エンゼル21 ホール,愛媛県今治市波方町樋口甲109-1,,,"https://local.google.co.jp/maps?q=34.0965161,132.9549044",https://images.meqqe.jp/post_images/gAHWtPSiTIyg5FVJfZGwm29bKVtDRNhAGCYncAgW.jpg,34.0965161,132.9549044
https://meqqe.jp/spots/10359772,AED @ほのか 地域交流室,愛媛県今治市高部甲535-1,,,"https://local.google.co.jp/maps?q=34.0949121,132.9741269",https://images.meqqe.jp/post_images/uP0gItDOAOtiSCxbP2BQnqtHXuwF2hZEOvYMaFBZ.jpg,34.0949121,132.9741269
https://meqqe.jp/spots/10365214,AED @グランドール今治弐番館 １階　エントランス,愛媛県今治市泉川町１丁目2-17,,,"https://local.google.co.jp/maps?q=34.0579448,132.9976266",/images/illust/illust-spot.png,34.0579448,132.9976266
https://meqqe.jp/spots/10365215,AED @伯方開発総合センター 正面右入口入って左柱,愛媛県今治市伯方町叶浦甲1668-30,,,"https://local.google.co.jp/maps?q=34.2029000,133.0746300",https://images.meqqe.jp/post_images/djg5ayXnY3QE2l1Ag24I1m3VhQkSjxlG5eUXBwHj.jpg,34.2029000,133.0746300
https://meqqe.jp/spots/10366911,AED @山内歯科医院 受付,今治市石橋町1丁目3-22,,,"https://local.google.co.jp/maps?q=34.0480524,133.0025789",https://images.meqqe.jp/post_images/oP8imUq8nQqQOB7nCZyHjlRDaHLafUL7RTpfoO2V.jpg,34.0480524,133.0025789
https://meqqe.jp/spots/10366910,AED @まき歯科 玄関内,今治市中寺342,,,"https://local.google.co.jp/maps?q=34.0362000,132.9928594",https://images.meqqe.jp/post_images/7tsyEYmahg9Mgks7RI53PvInrmcR9wNhScJ86yUe.jpg,34.0362000,132.9928594
https://meqqe.jp/spots/10366909,AED @きぬぼし歯科 診療室,今治市衣干町3丁目2-8,,,"https://local.google.co.jp/maps?q=34.0482447,133.0169339",https://images.meqqe.jp/post_images/S0rt5oUIQN2SKc42PXYdalq1LJFyg2VusylIY8jV.jpg,34.0482447,133.0169339
https://meqqe.jp/spots/10366914,AED @こぐま小児歯科 診療室内,今治市松木334-5,,,"https://local.google.co.jp/maps?q=34.0299979,132.9997939",https://images.meqqe.jp/post_images/4IXuflzHBLg1qEjcCth6Dsmjid0aQZaTnG97dKqw.jpg,34.0299979,132.9997939
https://meqqe.jp/spots/10366913,AED @あらき歯科 受付,今治市衣干町4丁目4-9,,,"https://local.google.co.jp/maps?q=34.0448520,133.0130800",https://images.meqqe.jp/post_images/p1bFX3qQClXNjRZjoFdg4w2lTqF8MaBve8jJYUPL.jpg,34.0448520,133.0130800
https://meqqe.jp/spots/10366912,AED @ときわ歯科医院 受付,今治市常盤町6丁目5-28,,,"https://local.google.co.jp/maps?q=34.0575392,132.9914270",https://images.meqqe.jp/post_images/od2GgsKl4pMXDhPL1tK0ag2nvz1XyKK6y8I3dxwM.jpg,34.0575392,132.9914270
https://meqqe.jp/spots/10366916,AED @久米歯科医院 待ち合い,今治市北宝来町2丁目3-1,,,"https://local.google.co.jp/maps?q=34.0653287,132.9942305",https://images.meqqe.jp/post_images/V1bxDSKG65q2rSCaB8SFygk91nfRVc4K9NSfZWZW.jpg,34.0653287,132.9942305
https://meqqe.jp/spots/10366915,AED @山田歯科医院 診療室,今治市蔵敷町1丁目7-2,,,"https://local.google.co.jp/maps?q=34.0586538,132.9993591",https://images.meqqe.jp/post_images/lA5GdTVOWkzgemIUKoWSE7WgAGdWoCEnqRdTMJVr.jpg,34.0586538,132.9993591
https://meqqe.jp/spots/10366918,AED @太田歯科医院 診療室,今治市大西町新町45-6,,,"https://local.google.co.jp/maps?q=34.0648980,132.9326645",https://images.meqqe.jp/post_images/paDCNEY4cCnyy53nlpKmpOTrkUigsBLaFlzMfnLr.jpg,34.0648980,132.9326645
https://meqqe.jp/spots/10366917,AED @秋山整形外科・歯科 処置室,今治市桜井2丁目3-1,,,"https://local.google.co.jp/maps?q=34.0223872,133.0382864",https://images.meqqe.jp/post_images/cqAUhd8EAVvhfEKqXgIvpEz6yw5aEoXQt3PeRk21.jpg,34.0223872,133.0382864
https://meqqe.jp/spots/10366919,AED @村上歯科医院 受付,今治市大西町脇甲829-1,,,"https://local.google.co.jp/maps?q=34.0612235,132.9208894",https://images.meqqe.jp/post_images/b5jTqKF1mhwMf3iUL6vzpIXUXOoqiDfpiOfBKLPk.jpg,34.0612235,132.9208894
https://meqqe.jp/spots/10368573,AED @いよ路サービス（有）居宅介護支援 2階通路,,今治鯉池町１丁目1-22,,"https://local.google.co.jp/maps?q=34.0532052,132.9882694",https://images.meqqe.jp/post_images/1ZrIFr3QjAYTUppBaf5wAH833ADrs7ChKhj8VuMA.jpg,34.0532052,132.9882694
https://meqqe.jp/spots/10368572,AED @（株）アイチコーポレーション 事務所入り口ロビー内,今治市天保山町５丁目１８２７－３３,,,"https://local.google.co.jp/maps?q=34.0641356,133.0142343",https://images.meqqe.jp/post_images/DcCxyWrcUpRnU8qSV4PmTw4HnfEjlYXH5zu7Jy8O.jpg,34.0641356,133.0142343
https://meqqe.jp/spots/10357548,AED @看護小規模多機能ひうち １階　倉庫,愛媛県今治市末広町３丁目3-6,,,"https://local.google.co.jp/maps?q=34.0615529,133.0044233",https://images.meqqe.jp/post_images/IKXsYIcvD1gYmcWgGxOrna8xX3t6YpRHDfoXRAWD.jpg,34.0615529,133.0044233
https://meqqe.jp/spots/10371512,AED＠今治市しまなみ交流プラザ　玄関壁面,,,,"https://local.google.co.jp/maps?q=34.2051695,133.1126807",https://images.meqqe.jp/post_images/c2NoopMuFAYdjBt5CblfU1Aay3rwXuf3oobyaTn2.jpg,34.2051695,133.1126807
https://meqqe.jp/spots/2980394,AED＠イオン今治店,愛媛県今治市馬越町4-8-1,,tel:0898253131,"https://local.google.co.jp/maps?q=34.0561440,132.9797730",https://images.meqqe.jp/post_images/0tjTKWmqGN5t34aiWGysx8x5SoN0JrVbay2dgyWw.jpg,34.0561440,132.9797730
https://meqqe.jp/spots/10374447,AED@大井幼児園,愛媛県今治市大西町紺原312番1,"月～金曜日
8:15～17:00",,"https://local.google.co.jp/maps?q=34.0677500,132.9401444",https://images.meqqe.jp/post_images/FWIn65qo2Xdc1ufh3WoiulOVsrmSzQFMTAf6DBKU.jpg,34.0677500,132.9401444
https://meqqe.jp/spots/10385274,AED @越智商工会菊間支所,愛媛県今治市菊間町浜484番地,"曜日　月曜日から金曜日まで（年末年始、祝祭日を除く）
時間　8:30～17:15",,"https://local.google.co.jp/maps?q=34.0358028,132.8411694",https://images.meqqe.jp/post_images/hs82uNIGOajgX7pbaubwHb3nw1T33JO4JZHxDuHx.jpg,34.0358028,132.8411694
https://meqqe.jp/spots/10385544,AED @樋口児童館,愛媛県今治市波方町樋口甲1755番地1,,,"https://local.google.co.jp/maps?q=34.1014194,132.9493639",https://images.meqqe.jp/post_images/PECKT0fnSvbvDSfTfRabrUta72Q1mUepnTD2JXaZ.jpg,34.1014194,132.9493639
https://meqqe.jp/spots/2258976,AED @亀岡児童館,愛媛県今治市菊間町佐方428,,tel:0898542606,"https://local.google.co.jp/maps?q=34.0566860,132.8739900",https://images.meqqe.jp/post_images/RQShmJcV8llail2WZ9MjmNaGcdTzTcRyaY1JvyE5.jpg,34.0566860,132.8739900
https://meqqe.jp/spots/10380622,AED @本町児童館,愛媛県今治市本町5丁目2番24号,,,"https://local.google.co.jp/maps?q=34.0739916,132.9977699",https://images.meqqe.jp/post_images/We7aQGVd5xUsC5KuceJCLdMpheEcSzdUOY9p7fo2.jpg,34.0739916,132.9977699
https://meqqe.jp/spots/2739212,AED @伊予銀行 今治市役所出張所 店内,愛媛県今治市別宮町1丁目4-1,月曜日～金曜日　9：00～17：00　（除く祝日）,,"https://local.google.co.jp/maps?q=34.0664560,132.9971540",https://images.meqqe.jp/post_images/zqlJCgmMCWSTN8M0jdvF9l1pEfNhfkMTr5PyrN7O.jpg,34.0664560,132.9971540
https://meqqe.jp/spots/2739194,AED @伊予銀行 宮浦支店　ATMコーナー,愛媛県今治市大三島町宮浦5402,月曜日～金曜日　8：45～18：00　土曜日　8:45～17:00　（除く祝日）,,"https://local.google.co.jp/maps?q=34.2474240,132.9984000",https://images.meqqe.jp/post_images/5qEp6a4sVBacpDA8VHhblhMGPjLfRnyrcHvGIKnf.jpg,34.2474240,132.9984000
https://meqqe.jp/spots/2739213,AED @伊予銀行 今治支店　ATMコーナー,愛媛県今治市常盤町4丁目2-1,月曜日～金曜日　8：00～21：00　土日祝　8：45～21：00（ATM稼働時間帯）,,"https://local.google.co.jp/maps?q=34.0655250,132.9987970",https://images.meqqe.jp/post_images/lljNEXNa6yBUVz8oxGEVY8SGQX5C3VRJNJtuiUy2.jpg,34.0655250,132.9987970
https://meqqe.jp/spots/10396923,AED @伊予銀行 今治支店　２階営業室,愛媛県今治市常盤町4丁目2番1号,月曜日～金曜日　9：00～17：00　土日祝　10：00～17：00,,"https://local.google.co.jp/maps?q=34.0655361,132.9987472",https://images.meqqe.jp/post_images/MvmtUKQVnYCKbFDRWp1b8O6nBvZwYMUOyknOWfuv.jpg,34.0655361,132.9987472
https://meqqe.jp/spots/2739277,AED @伊予銀行 波止浜支店 ATMコーナー,愛媛県今治市波止浜1丁目1-4,月曜日～金曜日　8：45～19：00　土日祝　8：45～17：00（ATM稼働時間帯）,,"https://local.google.co.jp/maps?q=34.1051740,132.9669690",https://images.meqqe.jp/post_images/7Q1E2e3f4ioxOz5LvyHX5eKHhjC49dtVdY4vyKnf.jpg,34.1051740,132.9669690
https://meqqe.jp/spots/2739190,AED @伊予銀行 菊間支店 ATMコーナー,愛媛県今治市菊間町浜500,月曜日～金曜日　8：45～19：00　土日祝　8：45～17：00（ATM稼働時間帯）,,"https://local.google.co.jp/maps?q=34.0357310,132.8417820",https://images.meqqe.jp/post_images/bTUorTWV7CcQ2tvOem8lmLRhOUcB62Nf7UcAFm0U.jpg,34.0357310,132.8417820
https://meqqe.jp/spots/2739255,AED @伊予銀行 大西支店 ATMコーナー,愛媛県今治市大西町新町甲760-1,月曜日～金曜日　9：00～15：00（ATM稼働時間帯）,,"https://local.google.co.jp/maps?q=34.0627580,132.9268890",/images/illust/illust-spot.png,34.0627580,132.9268890
https://meqqe.jp/spots/2739278,AED @伊予銀行 伯方支店 ATMコーナー,愛媛県今治市伯方町木浦甲1681-2,月曜日～金曜日　8：45～19：00　土日祝　8：45～17：00（ATM稼働時間帯）,,"https://local.google.co.jp/maps?q=34.2042360,133.1141600",https://images.meqqe.jp/post_images/IK92AWOa8ZUFsvqxhhD3Sjq4NIFVVRd5WFytYv3p.jpg,34.2042360,133.1141600
https://meqqe.jp/spots/2739256,AED @伊予銀行 大島支店 ATMコーナー,愛媛県今治市吉海町八幡162-2,毎日　8：45～18：00（ATM稼働時間帯）,,"https://local.google.co.jp/maps?q=34.1447910,133.0425710",https://images.meqqe.jp/post_images/9hToWEDyhuFCHkauoXKk9IoxXN38dIFokT2cqZNo.jpg,34.1447910,133.0425710
https://meqqe.jp/spots/2739218,AED @伊予銀行 桜井支店 ATMコーナー,愛媛県今治市桜井2丁目5-41,月曜日～金曜日　8：45～19：00　土日祝　8：45～17：00（ATM稼働時間帯）,,"https://local.google.co.jp/maps?q=34.0199850,133.0376110",https://images.meqqe.jp/post_images/Sjzb2sIWcG8glJboQgVme3FpVE2AUxaI1Yjaru0p.jpg,34.0199850,133.0376110
https://meqqe.jp/spots/2739275,AED @伊予銀行 日吉支店 ATMコーナー,愛媛県今治市常盤町6丁目5-20,月曜日～金曜日　8：45～19：00　土日祝　8：45～17：00（ATM稼働時間帯）,,"https://local.google.co.jp/maps?q=34.0577520,132.9909400",https://images.meqqe.jp/post_images/2E0ybJKWTd22NkXFbdWvHMI92oy9Qzj7KL9bQLtV.jpg,34.0577520,132.9909400
https://meqqe.jp/spots/2739276,AED @伊予銀行 日高支店 ATMコーナー,愛媛県今治市小泉4丁目4-50,月曜日～金曜日　8：45～19：00　土日祝　8：45～17：00（ATM稼働時間帯）,,"https://local.google.co.jp/maps?q=34.0485610,132.9812740",https://images.meqqe.jp/post_images/3CNpR6gz8sZX336HrXwx3bVPpCvnABpRNMtQdexQ.jpg,34.0485610,132.9812740
https://meqqe.jp/spots/2739283,AED @伊予銀行 富田支店 ATMコーナー,愛媛県今治市上徳乙368-1,月曜日～金曜日　8：45～19：00　土日祝　8：45～17：00（ATM稼働時間帯）,,"https://local.google.co.jp/maps?q=34.0305530,133.0146290",https://images.meqqe.jp/post_images/VzuzsLydfZdsyMGN5OeNcTktTuvVJWYoVepkwXcT.jpg,34.0305530,133.0146290
https://meqqe.jp/spots/2739214,AED @伊予銀行 今治南支店 ATMコーナー,愛媛県今治市郷本町2丁目3-41,月曜日～金曜日　8：45～19：00　土日祝　8：45～17：00（ATM稼働時間帯）,,"https://local.google.co.jp/maps?q=34.0474430,132.9957750",https://images.meqqe.jp/post_images/MV0ev5ldBFq35AOgXQvBkrZWRQOQYrzFBXv6UoZa.jpg,34.0474430,132.9957750
https://meqqe.jp/spots/2739265,AED @伊予銀行 鳥生支店 ATMコーナー,愛媛県今治市南高下町3丁目1-9,月曜日～金曜日　8：45～15：00　（ATM稼働時間帯）,,"https://local.google.co.jp/maps?q=34.0504970,133.0135280",https://images.meqqe.jp/post_images/vHwQnc5BYS9RG1lV8hkjB9YdappKQNHkAtBya4Ku.jpg,34.0504970,133.0135280
https://meqqe.jp/spots/2227549,AED @立花幼稚園 玄関横の相談室,愛媛県今治市立花町4丁目6−19,月曜日～金曜日　8：00～18：00,tel:0898227682,"https://local.google.co.jp/maps?q=34.0482900,133.0005650",https://images.meqqe.jp/post_images/BNLBTlkeXUJPt2eT8DpovtBGBTno18UTnSCIBNrI.jpg,34.0482900,133.0005650
https://meqqe.jp/spots/10398978,AED ＠愛媛県立今治特別支援学校　事務室前,愛媛県今治市桜井乙32番地313,"月曜日～金曜日
8：30～17：00",tel:0898470355,"https://local.google.co.jp/maps?q=34.0113982,133.0457722",https://images.meqqe.jp/post_images/zQx9Tk1XboGH9vAdhMWpkzpvIz1SGP13QXBMNTgW.jpg,34.0113982,133.0457722
https://meqqe.jp/spots/10398979,AED ＠愛媛県立今治特別支援学校　第５教棟入口,愛媛県今治市桜井乙32番地313,"月曜日～金曜日
8：30～17：00",tel:0898470355,"https://local.google.co.jp/maps?q=34.0112611,133.0458694",https://images.meqqe.jp/post_images/d7kofZhXV3dsD4hzStkdp1bY4aB14UDLNeEt90Ff.jpg,34.0112611,133.0458694
https://meqqe.jp/spots/10398980,AED ＠愛媛県立今治特別支援学校　保健室前,愛媛県今治市桜井乙32番地313,"月曜日～金曜日
8：30～17：00",tel:0898470355,"https://local.google.co.jp/maps?q=34.0112611,133.0458694",https://images.meqqe.jp/post_images/T3zJO5NkDb3TvrFa8glzq2vvjmLS8cXZG6MUrv2X.jpg,34.0112611,133.0458694
https://meqqe.jp/spots/2252739,AED @峠店にっし～　店舗内,愛媛県今治市菊間町種3569−1,年末年始を除く　7:00～18:00,tel:0898542188,"https://local.google.co.jp/maps?q=34.0512320,132.8651940",https://images.meqqe.jp/post_images/o98Nlbl5Rl4YZnfnhWaw7PhokkDY17Tmc5jyrmG0.jpg,34.0512320,132.8651940
https://meqqe.jp/spots/10402330,AED @有限会社　齊藤　事務所内,愛媛県今治市宅間甲3219番地,"8:30～22:00
土・日・祝以外",,"https://local.google.co.jp/maps?q=34.0710360,132.9404870",https://images.meqqe.jp/post_images/i9wPjEsvq4phIRyZVjKzp1R6XioQkGWyyZRfGM8f.jpg,34.0710360,132.9404870
